NUMBER,STREET NAME,streetAddress,city,latitude,longidtude,type
167,Armstrong Ave,167 Armstrong Ave,JERSEY CITY,40.702689,-74.087402,APRA
80,Bowers Street,80 Bowers Street,JERSEY CITY,40.746682,-74.045935,APRA
142,Boyd Ave,142 Boyd Ave,JERSEY CITY,40.717945,-74.085447,APRA
182,Claremont Ave,182 Claremont Ave,JERSEY CITY,40.710576,-74.0809699,APRA
219,Clendenny Ave,219 Clendenny Ave,JERSEY CITY,40.720618,-74.086862,APRA
67,Clerk St,67 Clerk St,JERSEY CITY,40.7063762,-74.0770381,APRA
163,Clerk St,163 Clerk St,JERSEY CITY,40.709295,-74.075732,APRA
165,Clerk St,165 Clerk St,JERSEY CITY,40.709336,-74.07571,APRA
208,Columbus Drive,208 Columbus Drive,JERSEY CITY,40.721403,-74.0478679,APRA
35,Dwight St,35 Dwight St,JERSEY CITY,40.701322,-74.080768,APRA
329,Forrest st,329 Forrest st,JERSEY CITY,40.713189,-74.077909,APRA
148-150,Fulton Ave,148-150 Fulton Ave,JERSEY CITY,40.703655,-74.0848989,APRA
248,Grove Street,248 Grove Street,JERSEY CITY,40.716489,-74.044312,APRA
2131,Kennedy Blvd,2131 Kennedy Blvd,JERSEY CITY,40.711779,-74.0845439,APRA
18,Mc Dougall St,18 Mc Dougall St,JERSEY CITY,40.714748,-74.069069,APRA
125,Monitor St,125 Monitor St,JERSEY CITY,40.713223,-74.056656,APRA
9,Myrtle Ave,9 Myrtle Ave,JERSEY CITY,40.705015,-74.07523,APRA
37.5,Oak Street,37.5 Oak Street,JERSEY CITY,40.7126871,-74.0748746,APRA
354,Ogden Ave,354 Ogden Ave,JERSEY CITY,40.745866,-74.041807,APRA
81,Orient Ave,81 Orient Ave,JERSEY CITY,40.71058,-74.080367,APRA
404,Palisade Ave,404 Palisade Ave,JERSEY CITY,40.7423659,-74.045008,APRA
671,Palisade Ave,671 Palisade Ave,JERSEY CITY,40.7512779,-74.0399168,APRA
332,Whiton St,332 Whiton St,JERSEY CITY,40.712105,-74.059852,APRA
308,ACADEMY STREET,308 ACADEMY STREET,JERSEY CITY,40.730196,-74.0666959,Vacant Building
35,AETNA STREET,35 AETNA STREET,JERSEY CITY,40.712835,-74.052721,Vacant Building
42,ARLINGTON AVENUE,42 ARLINGTON AVENUE,JERSEY CITY,40.703778,-74.077688,Vacant Building
61,ARLINGTON AVENUE,61 ARLINGTON AVENUE,JERSEY CITY,40.7044039,-74.077737,Vacant Building
93,ARLINGTON AVENUE,93 ARLINGTON AVENUE,JERSEY CITY,40.705411,-74.076775,Vacant Building
127,ARLINGTON AVENUE,127 ARLINGTON AVENUE,JERSEY CITY,40.706463,-74.076134,Vacant Building
136,ARLINGTON AVENUE,136 ARLINGTON AVENUE,JERSEY CITY,40.7065849,-74.07535,Vacant Building
171,ARLINGTON AVENUE,171 ARLINGTON AVENUE,JERSEY CITY,40.708003,-74.075312,Vacant Building
218,ARLINGTON AVENUE,218 ARLINGTON AVENUE,JERSEY CITY,40.709445,-74.073817,Vacant Building
234,ARLINGTON AVENUE,234 ARLINGTON AVENUE,JERSEY CITY,40.709805,-74.073705,Vacant Building
258,ARLINGTON AVENUE,258 ARLINGTON AVENUE,JERSEY CITY,40.710342,-74.073192,Vacant Building
284,ARLINGTON AVENUE,284 ARLINGTON AVENUE,JERSEY CITY,40.711245,-74.072378,Vacant Building
305,ARLINGTON AVENUE,305 ARLINGTON AVENUE,JERSEY CITY,40.711768,-74.072179,Vacant Building
306,ARLINGTON AVENUE,306 ARLINGTON AVENUE,JERSEY CITY,40.7114815,-74.0719423,Vacant Building
88A,ARLINGTON AVENUE,88A ARLINGTON AVENUE,JERSEY CITY,40.705072,-74.07638,Vacant Building
158,ARLINGTON AVENUE,158 ARLINGTON AVENUE,JERSEY CITY,40.707465,-74.074927,Vacant Building
329.5,ARLINGTON AVENUE,329.5 ARLINGTON AVENUE,JERSEY CITY,40.7036938,-74.0781225,Vacant Building
237,ARLINGTON AVENUE,237 ARLINGTON AVENUE,JERSEY CITY,40.710217,-74.074126,Vacant Building
347,ARLINGTON AVENUE,347 ARLINGTON AVENUE,JERSEY CITY,40.7129641,-74.070778,Vacant Building
122,ARLINGTON AVENUE,122 ARLINGTON AVENUE,JERSEY CITY,40.706156,-74.07558,Vacant Building
27,ARMSTRONG AVENUE,27 ARMSTRONG AVENUE,JERSEY CITY,40.69944,-74.083022,Vacant Building
78,ARMSTRONG AVENUE,78 ARMSTRONG AVENUE,JERSEY CITY,40.7010549,-74.084062,Vacant Building
159,ARMSTRONG AVENUE,159 ARMSTRONG AVENUE,JERSEY CITY,40.7025099,-74.087128,Vacant Building
166,ARMSTRONG AVENUE,166 ARMSTRONG AVENUE,JERSEY CITY,40.703009,-74.087045,Vacant Building
167,ARMSTRONG AVENUE,167 ARMSTRONG AVENUE,JERSEY CITY,40.702689,-74.087402,Vacant Building
394,ARMSTRONG AVENUE,394 ARMSTRONG AVENUE,JERSEY CITY,40.708485,-74.095028,Vacant Building
48,ARMSTRONG AVENUE,48 ARMSTRONG AVENUE,JERSEY CITY,40.7001994,-74.083061,Vacant Building
75,ARMSTRONG AVENUE,75 ARMSTRONG AVENUE,JERSEY CITY,40.700682,-74.084331,Vacant Building
284,ARMSTRONG AVENUE,284 ARMSTRONG AVENUE,JERSEY CITY,40.7058204,-74.0911124,Vacant Building
55,ATLANTIC AVENUE,55 ATLANTIC AVENUE,JERSEY CITY,40.6914011,-73.9983729,Vacant Building
102,ATLANTIC STREET,102 ATLANTIC STREET,JERSEY CITY,40.715959,-74.077355,Vacant Building
55,ATLANTIC STREET,55 ATLANTIC STREET,JERSEY CITY,40.71473,-74.07595,Vacant Building
65.5,ATLANTIC STREET,65.5 ATLANTIC STREET,JERSEY CITY,40.714939,-74.076344,Vacant Building
143,AUDUBON AVENUE,143 AUDUBON AVENUE,JERSEY CITY,40.7105113,-74.0912947,Vacant Building
27,BALDWIN AVENUE,27 BALDWIN AVENUE,JERSEY CITY,40.7230501,-74.0650125,Vacant Building
180,BALDWIN AVENUE,180 BALDWIN AVENUE,JERSEY CITY,40.72744,-74.060507,Vacant Building
267,BALDWIN AVENUE,267 BALDWIN AVENUE,JERSEY CITY,40.730965,-74.0577351,Vacant Building
414,BALDWIN AVENUE,414 BALDWIN AVENUE,JERSEY CITY,40.734844,-74.052953,Vacant Building
27,BALDWIN AVENUE,27 BALDWIN AVENUE,JERSEY CITY,40.7230501,-74.0650125,Vacant Building
417.5,BALDWIN AVENUE,417.5 BALDWIN AVENUE,JERSEY CITY,40.7218488,-74.0656685,Vacant Building
159,BARTHOLDI AVENUE,159 BARTHOLDI AVENUE,JERSEY CITY,40.697629,-74.09782,Vacant Building
251,BARTHOLDI AVENUE,251 BARTHOLDI AVENUE,JERSEY CITY,40.700277,-74.099997,Vacant Building
17-23,BATES STREET,17-23 BATES STREET,JERSEY CITY,40.718095,-74.054127,Vacant Building
2,BAYSIDE PARK DRIVE,2 BAYSIDE PARK DRIVE,JERSEY CITY,40.6988119,-74.081323,Vacant Building
10,BAYSIDE PLACE,10 BAYSIDE PLACE,JERSEY CITY,40.700503,-74.080528,Vacant Building
14,BAYSIDE PLACE,14 BAYSIDE PLACE,JERSEY CITY,40.700548,-74.080349,Vacant Building
45,BAYSIDE TERRACE,45 BAYSIDE TERRACE,JERSEY CITY,40.699485,-74.079988,Vacant Building
132,BAYVIEW,132 BAYVIEW,JERSEY CITY,40.705997,-74.08092,Vacant Building
8,BAYVIEW AVENUE,8 BAYVIEW AVENUE,JERSEY CITY,40.702817,-74.076755,Vacant Building
12,BAYVIEW AVENUE,12 BAYVIEW AVENUE,JERSEY CITY,40.702967,-74.076824,Vacant Building
233,BAYVIEW AVENUE,233 BAYVIEW AVENUE,JERSEY CITY,40.707908,-74.084633,Vacant Building
223,BAYVIEW AVENUE,223 BAYVIEW AVENUE,JERSEY CITY,40.707682,-74.084295,Vacant Building
25,BAYVIEW AVENUE,25 BAYVIEW AVENUE,JERSEY CITY,40.702998,-74.077674,Vacant Building
134,BAYVIEW AVENUE,134 BAYVIEW AVENUE,JERSEY CITY,40.7060419,-74.080988,Vacant Building
64,BEACH STREET,64 BEACH STREET,JERSEY CITY,40.744471,-74.057066,Vacant Building
101,BEACH STREET,101 BEACH STREET,JERSEY CITY,40.744821,-74.059155,Vacant Building
57,BEACON AVENUE,57 BEACON AVENUE,JERSEY CITY,40.735701,-74.052884,Vacant Building
74,BEACON AVENUE,74 BEACON AVENUE,JERSEY CITY,40.736406,-74.053134,Vacant Building
121,BEACON AVENUE,121 BEACON AVENUE,JERSEY CITY,40.7371089,-74.055625,Vacant Building
22,BELMONT AVENUE,22 BELMONT AVENUE,JERSEY CITY,40.7191529,-74.0682743,Vacant Building
25,BELMONT AVENUE,25 BELMONT AVENUE,JERSEY CITY,40.7189489,-74.0687542,Vacant Building
27,BELMONT AVENUE,27 BELMONT AVENUE,JERSEY CITY,40.718912,-74.068803,Vacant Building
29,BELMONT AVENUE,29 BELMONT AVENUE,JERSEY CITY,40.71893,-74.068845,Vacant Building
65,BELMONT AVENUE,65 BELMONT AVENUE,JERSEY CITY,40.719564,-74.0702788,Vacant Building
224,BELVIDERE AVENUE,224 BELVIDERE AVENUE,JERSEY CITY,40.7290115,-74.0780576,Vacant Building
117,BENTLEY AVENUE,117 BENTLEY AVENUE,JERSEY CITY,40.7214979,-74.078806,Vacant Building
161,BERGEN AVENUE,161 BERGEN AVENUE,JERSEY CITY,40.708256,-74.085711,Vacant Building
200,BERGEN AVENUE,200 BERGEN AVENUE,JERSEY CITY,40.7091179,-74.084368,Vacant Building
249,BERGEN AVENUE,249 BERGEN AVENUE,JERSEY CITY,40.710635,-74.083776,Vacant Building
299,BERGEN AVENUE,299 BERGEN AVENUE,JERSEY CITY,40.712351,-74.082455,Vacant Building
727,BERGEN AVENUE,727 BERGEN AVENUE,JERSEY CITY,40.724729,-74.069653,Vacant Building
829,BERGEN AVENUE,829 BERGEN AVENUE,JERSEY CITY,40.728007,-74.067474,Vacant Building
677,BERGEN AVENUE,677 BERGEN AVENUE,JERSEY CITY,40.7234073,-74.0704962,Vacant Building
347,BERGEN AVENUE,347 BERGEN AVENUE,JERSEY CITY,40.713985,-74.081153,Vacant Building
459,BERGEN AVENUE,459 BERGEN AVENUE,JERSEY CITY,40.717298,-74.077532,Vacant Building
55,BIDWELL AVENUE,55 BIDWELL AVENUE,JERSEY CITY,40.703157,-74.079226,Vacant Building
60,BIDWELL AVENUE,60 BIDWELL AVENUE,JERSEY CITY,40.70358,-74.078944,Vacant Building
68,BIDWELL AVENUE,68 BIDWELL AVENUE,JERSEY CITY,40.703775,-74.079198,Vacant Building
92,BIDWELL AVENUE,92 BIDWELL AVENUE,JERSEY CITY,40.704456,-74.080195,Vacant Building
100,BIDWELL AVENUE,100 BIDWELL AVENUE,JERSEY CITY,40.704685,-74.0804069,Vacant Building
137,BIDWELL AVENUE,137 BIDWELL AVENUE,JERSEY CITY,40.70518,-74.082047,Vacant Building
152,BIDWELL AVENUE,152 BIDWELL AVENUE,JERSEY CITY,40.705869,-74.082193,Vacant Building
157,BIDWELL AVENUE,157 BIDWELL AVENUE,JERSEY CITY,40.7056309,-74.0827259,Vacant Building
185,BIDWELL AVENUE,185 BIDWELL AVENUE,JERSEY CITY,40.706278,-74.083701,Vacant Building
212,BIDWELL AVENUE,212 BIDWELL AVENUE,JERSEY CITY,40.707317,-74.084354,Vacant Building
150,BIDWELL AVENUE,150 BIDWELL AVENUE,JERSEY CITY,40.705823,-74.082125,Vacant Building
231,BIDWELL AVENUE,231 BIDWELL AVENUE,JERSEY CITY,40.707423,-74.085378,Vacant Building
83,BLEECKER STREET,83 BLEECKER STREET,JERSEY CITY,40.751173,-74.050894,Vacant Building
93,BLEECKER STREET,93 BLEECKER STREET,JERSEY CITY,40.751345,-74.051325,Vacant Building
13,BOLAND STREET,13 BOLAND STREET,JERSEY CITY,40.725517,-74.06973,Vacant Building
121,BOORAEM AVENUE,121 BOORAEM AVENUE,JERSEY CITY,40.740648,-74.051336,Vacant Building
141,BOORAEM AVENUE,141 BOORAEM AVENUE,JERSEY CITY,40.741001,-74.052009,Vacant Building
10,BOSTWICK AVENUE,10 BOSTWICK AVENUE,JERSEY CITY,40.7063374,-74.0787782,Vacant Building
114,BOSTWICK AVENUE,114 BOSTWICK AVENUE,JERSEY CITY,40.708825,-74.082455,Vacant Building
148,BOSTWICK AVENUE,148 BOSTWICK AVENUE,JERSEY CITY,40.709618,-74.083697,Vacant Building
147,BOSTWICK AVENUE,147 BOSTWICK AVENUE,JERSEY CITY,40.709241,-74.084006,Vacant Building
80,BOWERS STREET,80 BOWERS STREET,JERSEY CITY,40.746682,-74.045935,Vacant Building
216,BOWERS STREET,216 BOWERS STREET,JERSEY CITY,40.7490049,-74.052272,Vacant Building
257,BOWERS STREET,257 BOWERS STREET,JERSEY CITY,40.749328,-74.054303,Vacant Building
53,BOWERS STREET,53 BOWERS STREET,JERSEY CITY,40.7458646,-74.0448285,Vacant Building
40,BOYD AVENUE,40 BOYD AVENUE,JERSEY CITY,40.715942,-74.081145,Vacant Building
279,BOYD AVENUE,279 BOYD AVENUE,JERSEY CITY,40.720318,-74.090903,Vacant Building
107,BOYD AVENUE,107 BOYD AVENUE,JERSEY CITY,40.717033,-74.0841839,Vacant Building
142,BOYD AVENUE,142 BOYD AVENUE,JERSEY CITY,40.7179043,-74.0854904,Vacant Building
143,BOYD AVENUE,143 BOYD AVENUE,JERSEY CITY,40.7176199,-74.085843,Vacant Building
107,BOYD AVENUE,107 BOYD AVENUE,JERSEY CITY,40.717033,-74.0841839,Vacant Building
65,BOYD AVENUE,65 BOYD AVENUE,JERSEY CITY,40.716368,-74.082959,Vacant Building
182,BOYD AVENUE,182 BOYD AVENUE,JERSEY CITY,40.7186885,-74.0869359,Vacant Building
152,BOYD AVENUE,152 BOYD AVENUE,JERSEY CITY,40.7181126,-74.0857967,Vacant Building
17,BOYD AVENUE,17 BOYD AVENUE,JERSEY CITY,40.715302,-74.0811559,Vacant Building
364,BRAMHALL AVENUE,364 BRAMHALL AVENUE,JERSEY CITY,40.710897,-74.065882,Vacant Building
379.5,BRAMHALL AVENUE,379.5 BRAMHALL AVENUE,JERSEY CITY,40.711217,-74.0669379,Vacant Building
479,BRAMHALL AVENUE,479 BRAMHALL AVENUE,JERSEY CITY,40.71319,-74.07163,Vacant Building
585,BRAMHALL AVENUE,585 BRAMHALL AVENUE,JERSEY CITY,40.715515,-74.0757859,Vacant Building
608,BRAMHALL AVENUE,608 BRAMHALL AVENUE,JERSEY CITY,40.7163366,-74.0763854,Vacant Building
622,BRAMHALL AVENUE,622 BRAMHALL AVENUE,JERSEY CITY,40.716659,-74.076933,Vacant Building
625,BRAMHALL AVENUE,625 BRAMHALL AVENUE,JERSEY CITY,40.7164068,-74.0774536,Vacant Building
628,BRAMHALL AVENUE,628 BRAMHALL AVENUE,JERSEY CITY,40.7167585,-74.0772189,Vacant Building
95,BRIGHT STREET,95 BRIGHT STREET,JERSEY CITY,40.717343,-74.049491,Vacant Building
1,BROOK STREET,1 BROOK STREET,JERSEY CITY,40.7185431,-74.0539,Vacant Building
13,BROOK STREET,13 BROOK STREET,JERSEY CITY,40.718362,-74.054029,Vacant Building
41277,BROOK STREET,41277 BROOK STREET,JERSEY CITY,40.718587,-74.0539952,Vacant Building
"7,9",BROOK STREET,"7,9 BROOK STREET",JERSEY CITY,40.7186067,-74.0542882,Vacant Building
101,BROWN PLACE,101 BROWN PLACE,JERSEY CITY,40.69026,-74.092998,Vacant Building
44,BRYANT AVENUE,44 BRYANT AVENUE,JERSEY CITY,40.7333523,-74.0749295,Vacant Building
208,C. COLUMBUS DRIVE,208 C. COLUMBUS DRIVE,JERSEY CITY,40.721403,-74.0478679,Vacant Building
109,C.COLUMBUS DRIVE,109 C.COLUMBUS DRIVE,JERSEY CITY,40.719481,-74.0437446,Vacant Building
53,CAMBRIDGE AVENUE,53 CAMBRIDGE AVENUE,JERSEY CITY,40.744721,-74.0490282,Vacant Building
70,CAMBRIDGE AVENUE,70 CAMBRIDGE AVENUE,JERSEY CITY,40.745099,-74.048352,Vacant Building
198,CAMBRIDGE AVENUE,198 CAMBRIDGE AVENUE,JERSEY CITY,40.749556,-74.045728,Vacant Building
216,CAMBRIDGE AVENUE,216 CAMBRIDGE AVENUE,JERSEY CITY,40.750125,-74.045359,Vacant Building
121,CARTERET AVENUE,121 CARTERET AVENUE,JERSEY CITY,40.708452,-74.072986,Vacant Building
160,CARTERET AVENUE,160 CARTERET AVENUE,JERSEY CITY,40.7094358,-74.0747209,Vacant Building
161,CARTERET AVENUE,161 CARTERET AVENUE,JERSEY CITY,40.7091489,-74.07499,Vacant Building
185,CARTERET AVENUE,185 CARTERET AVENUE,JERSEY CITY,40.709484,-74.076139,Vacant Building
191,CARTERET AVENUE,191 CARTERET AVENUE,JERSEY CITY,40.709524,-74.0763149,Vacant Building
113,CATOR AVENUE,113 CATOR AVENUE,JERSEY CITY,40.696347,-74.090407,Vacant Building
211,CATOR AVENUE,211 CATOR AVENUE,JERSEY CITY,40.699164,-74.092799,Vacant Building
223,CATOR AVENUE,223 CATOR AVENUE,JERSEY CITY,40.699511,-74.09309,Vacant Building
229,CATOR AVENUE,229 CATOR AVENUE,JERSEY CITY,40.6997166,-74.0931741,Vacant Building
134-42,CATOR AVENUE,134-42 CATOR AVENUE,JERSEY CITY,40.6942424,-74.0882751,Vacant Building
164,CATOR AVENUE,164 CATOR AVENUE,JERSEY CITY,40.698218,-74.0913489,Vacant Building
12,CATOR AVENUE,12 CATOR AVENUE,JERSEY CITY,40.69371,-74.087522,Vacant Building
358,CENTRAL AVENUE,358 CENTRAL AVENUE,JERSEY CITY,40.7469309,-74.04827,Vacant Building
360,CENTRAL AVENUE,360 CENTRAL AVENUE,JERSEY CITY,40.747008,-74.04827,Vacant Building
329-331,CENTRAL AVENUE,329-331 CENTRAL AVENUE,JERSEY CITY,40.7462872,-74.0491846,Vacant Building
300,CHAPEL AVENUE,300 CHAPEL AVENUE,JERSEY CITY,40.698941,-74.088465,Vacant Building
307,CHAPEL AVENUE,307 CHAPEL AVENUE,JERSEY CITY,40.698851,-74.089149,Vacant Building
40,CHARLES STREET,40 CHARLES STREET,JERSEY CITY,40.7486971,-74.0496081,Vacant Building
120,CHESTNUT STREET,120 CHESTNUT STREET,JERSEY CITY,40.728806,-74.057067,Vacant Building
182,CLAREMONT AVENUE,182 CLAREMONT AVENUE,JERSEY CITY,40.710576,-74.0809699,Vacant Building
33,CLAREMONT AVENUE,33 CLAREMONT AVENUE,JERSEY CITY,40.706949,-74.074912,Vacant Building
97,CLAREMONT AVENUE,97 CLAREMONT AVENUE,JERSEY CITY,40.7081726,-74.0781169,Vacant Building
111,CLAREMONT AVENUE,111 CLAREMONT AVENUE,JERSEY CITY,40.708418,-74.078604,Vacant Building
170,CLAREMONT AVENUE,170 CLAREMONT AVENUE,JERSEY CITY,40.7102828,-74.0806337,Vacant Building
182,CLAREMONT AVENUE,182 CLAREMONT AVENUE,JERSEY CITY,40.710576,-74.0809699,Vacant Building
206,CLAREMONT AVENUE,206 CLAREMONT AVENUE,JERSEY CITY,40.711135,-74.081825,Vacant Building
287,CLAREMONT AVENUE,287 CLAREMONT AVENUE,JERSEY CITY,40.712534,-74.085406,Vacant Building
309,CLAREMONT AVENUE,309 CLAREMONT AVENUE,JERSEY CITY,40.712999,-74.0861819,Vacant Building
321,CLAREMONT AVENUE,321 CLAREMONT AVENUE,JERSEY CITY,40.713252,-74.086605,Vacant Building
345,CLAREMONT AVENUE,345 CLAREMONT AVENUE,JERSEY CITY,40.713759,-74.087451,Vacant Building
17,CLAREMONT AVENUE,17 CLAREMONT AVENUE,JERSEY CITY,40.706679,-74.074038,Vacant Building
103,CLAREMONT AVENUE,103 CLAREMONT AVENUE,JERSEY CITY,40.708239,-74.0783299,Vacant Building
62,CLARKE AVENUE,62 CLARKE AVENUE,JERSEY CITY,40.7171219,-74.0888026,Vacant Building
128,CLARKE AVENUE,128 CLARKE AVENUE,JERSEY CITY,40.718567,-74.0914109,Vacant Building
43,CLENDENNY AVENUE,43 CLENDENNY AVENUE,JERSEY CITY,40.717205,-74.080032,Vacant Building
208,CLENDENNY AVENUE,208 CLENDENNY AVENUE,JERSEY CITY,40.72063,-74.086066,Vacant Building
231,CLENDENNY AVENUE,231 CLENDENNY AVENUE,JERSEY CITY,40.720928,-74.087715,Vacant Building
243,CLENDENNY AVENUE,243 CLENDENNY AVENUE,JERSEY CITY,40.72114,-74.088148,Vacant Building
111,CLENDENNY AVENUE,111 CLENDENNY AVENUE,JERSEY CITY,40.718473,-74.082496,Vacant Building
289,CLENDENNY AVENUE,289 CLENDENNY AVENUE,JERSEY CITY,40.721843,-74.089677,Vacant Building
94,CLERK STREET,94 CLERK STREET,JERSEY CITY,40.706921,-74.076376,Vacant Building
99,CLERK STREET,99 CLERK STREET,JERSEY CITY,40.707439,-74.076682,Vacant Building
175,CLERK STREET,175 CLERK STREET,JERSEY CITY,40.709805,-74.0755159,Vacant Building
181,CLERK STREET,181 CLERK STREET,JERSEY CITY,40.709992,-74.075367,Vacant Building
185,CLERK STREET,185 CLERK STREET,JERSEY CITY,40.71014,-74.0753359,Vacant Building
67,CLERK STREET,67 CLERK STREET,JERSEY CITY,40.7063762,-74.0770381,Vacant Building
163,CLERK STREET,163 CLERK STREET,JERSEY CITY,40.709295,-74.075732,Vacant Building
165,CLERK STREET,165 CLERK STREET,JERSEY CITY,40.709336,-74.07571,Vacant Building
267,CLERK STREET,267 CLERK STREET,JERSEY CITY,40.712325,-74.0734,Vacant Building
151,CLERK STREET,151 CLERK STREET,JERSEY CITY,40.708999,-74.07594,Vacant Building
260,CLERK STREET,260 CLERK STREET,JERSEY CITY,#N/A,#N/A,#N/A
108,CLINTON AVENUE,108 CLINTON AVENUE,JERSEY CITY,40.717505,-74.0754,Vacant Building
169,CLINTON AVENUE,169 CLINTON AVENUE,JERSEY CITY,40.718356,-74.078199,Vacant Building
207,CLINTON AVENUE,207 CLINTON AVENUE,JERSEY CITY,40.719112,-74.079584,Vacant Building
227,CLINTON AVENUE,227 CLINTON AVENUE,JERSEY CITY,40.719459,-74.080256,Vacant Building
14-22,CLINTON AVENUE,14-22 CLINTON AVENUE,JERSEY CITY,40.7152907,-74.0715567,Vacant Building
9,CLINTON AVENUE,9 CLINTON AVENUE,JERSEY CITY,40.7150139,-74.071459,Vacant Building
241,CLINTON AVENUE,241 CLINTON AVENUE,JERSEY CITY,40.719691,-74.080741,Vacant Building
30-34,CLINTON AVENUE,30-34 CLINTON AVENUE,JERSEY CITY,40.715692,-74.07184,Vacant Building
114,COLDEN STREET,114 COLDEN STREET,JERSEY CITY,40.71812,-74.05435,Vacant Building
114,COLES STREET,114 COLES STREET,JERSEY CITY,40.725927,-74.046778,Vacant Building
115,COLES STREET,115 COLES STREET,JERSEY CITY,40.726064,-74.047342,Vacant Building
56,COLLEGE STREET,56 COLLEGE STREET,JERSEY CITY,40.710844,-74.088297,Vacant Building
19,COLUMBIA AVENUE,19 COLUMBIA AVENUE,JERSEY CITY,40.748829,-74.056982,Vacant Building
94,COLUMBIA AVENUE,94 COLUMBIA AVENUE,JERSEY CITY,40.751063,-74.054808,Vacant Building
140,COLUMBIA AVENUE,140 COLUMBIA AVENUE,JERSEY CITY,40.75297,-74.053429,Vacant Building
319,COLUMBIA AVENUE,319 COLUMBIA AVENUE,JERSEY CITY,40.758712,-74.050296,Vacant Building
287,COLUMBIA AVENUE,287 COLUMBIA AVENUE,JERSEY CITY,40.7576669,-74.0508946,Vacant Building
214,COMMUNIPAW AVENUE,214 COMMUNIPAW AVENUE,JERSEY CITY,40.7093868,-74.0578617,Vacant Building
691,COMMUNIPAW AVENUE,691 COMMUNIPAW AVENUE,JERSEY CITY,40.718864,-74.077017,Vacant Building
337,COMMUNIPAW AVENUE,337 COMMUNIPAW AVENUE,JERSEY CITY,40.710562,-74.062104,Vacant Building
610,COMMUNIPAW AVENUE,610 COMMUNIPAW AVENUE,JERSEY CITY,40.717834,-74.073234,Vacant Building
783,COMMUNIPAW AVENUE,783 COMMUNIPAW AVENUE,JERSEY CITY,40.720332,-74.080595,Vacant Building
250-254,COMMUNIPAW AVENUE,250-254 COMMUNIPAW AVENUE,JERSEY CITY,40.7093868,-74.0578617,Vacant Building
568-72,COMMUNIPAW AVENUE,568-72 COMMUNIPAW AVENUE,JERSEY CITY,40.717061,-74.071589,Vacant Building
63,CONGREES STREET,63 CONGREES STREET,JERSEY CITY,40.7497001,-74.0430576,Vacant Building
72,CONGREES STREET,72 CONGREES STREET,JERSEY CITY,40.750006,-74.043301,Vacant Building
129,CONGRESS STREET,129 CONGRESS STREET,JERSEY CITY,40.750984,-74.046599,Vacant Building
14,CORBIN AVENUE,14 CORBIN AVENUE,JERSEY CITY,40.730892,-74.072073,Vacant Building
23,COTTAGE STREET,23 COTTAGE STREET,JERSEY CITY,40.734053,-74.060349,Vacant Building
112,COTTAGE STREET,112 COTTAGE STREET,JERSEY CITY,40.734961,-74.064327,Vacant Building
31,COURT HOUSE PL,31 COURT HOUSE PL,JERSEY CITY,40.731496,-74.055103,Vacant Building
13,CRAWFORD STREET,13 CRAWFORD STREET,JERSEY CITY,40.722372,-74.06637,Vacant Building
10,CROSSGATES STREET,10 CROSSGATES STREET,JERSEY CITY,40.697044,-74.103167,Vacant Building
52,CULVER AVENUE,52 CULVER AVENUE,JERSEY CITY,40.711397,-74.087253,Vacant Building
244,CUSTER AVENUE,244 CUSTER AVENUE,JERSEY CITY,40.695141,-74.100448,Vacant Building
53,DANFORTH AVENUE,53 DANFORTH AVENUE,JERSEY CITY,40.693862,-74.089573,Vacant Building
246,DANFORTH AVENUE,246 DANFORTH AVENUE,JERSEY CITY,40.699958,-74.094052,Vacant Building
102,DE KALB AVENUE,102 DE KALB AVENUE,JERSEY CITY,40.729647,-74.07152,Vacant Building
210,DELAWARE AVENUE,210 DELAWARE AVENUE,JERSEY CITY,40.7279895,-74.0768479,Vacant Building
9,DOGWOOD ROAD,9 DOGWOOD ROAD,JERSEY CITY,40.705297,-74.1045029,Vacant Building
190,DUNCAN AVENUE,190 DUNCAN AVENUE,JERSEY CITY,40.727433,-74.077633,Vacant Building
53,DUNCAN AVENUE,53 DUNCAN AVENUE,JERSEY CITY,40.724385,-74.072671,Vacant Building
238,DUNCAN AVENUE,238 DUNCAN AVENUE,JERSEY CITY,40.728269,-74.0795009,Vacant Building
256,DUNCAN AVENUE,256 DUNCAN AVENUE,JERSEY CITY,40.728573,-74.08024,Vacant Building
259,DUNCAN AVENUE,259 DUNCAN AVENUE,JERSEY CITY,40.728234,-74.080845,Vacant Building
314,DUNCAN AVENUE,314 DUNCAN AVENUE,JERSEY CITY,40.729655,-74.082689,Vacant Building
36,DWIGHT STREET,36 DWIGHT STREET,JERSEY CITY,40.701618,-74.08038,Vacant Building
6,DWIGHT STREET,6 DWIGHT STREET,JERSEY CITY,40.700856,-74.079486,Vacant Building
31,DWIGHT STREET,31 DWIGHT STREET,JERSEY CITY,40.701224,-74.080642,Vacant Building
51,DWIGHT STREET,51 DWIGHT STREET,JERSEY CITY,40.701671,-74.081223,Vacant Building
88,DWIGHT STREET,88 DWIGHT STREET,JERSEY CITY,40.702883,-74.082269,Vacant Building
189,DWIGHT STREET,189 DWIGHT STREET,JERSEY CITY,40.7045028,-74.0854924,Vacant Building
220,DWIGHT STREET,220 DWIGHT STREET,JERSEY CITY,40.705486,-74.086237,Vacant Building
226,DWIGHT STREET,226 DWIGHT STREET,JERSEY CITY,40.705621,-74.086442,Vacant Building
266,DWIGHT STREET,266 DWIGHT STREET,JERSEY CITY,40.706459,-74.087998,Vacant Building
35,DWIGHT STREET,35 DWIGHT STREET,JERSEY CITY,40.701322,-74.080768,Vacant Building
20,E. BIDWELL AVENUE,20 E. BIDWELL AVENUE,JERSEY CITY,40.701787,-74.07653,Vacant Building
24,EASTERN PARKWAY,24 EASTERN PARKWAY,JERSEY CITY,40.6983025,-74.0841071,Vacant Building
47,EASTERN PARKWAY,47 EASTERN PARKWAY,JERSEY CITY,40.698707,-74.085195,Vacant Building
282,EGE AVENUE,282 EGE AVENUE,JERSEY CITY,40.717106,-74.087096,Vacant Building
85,EGE AVENUE,85 EGE AVENUE,JERSEY CITY,40.711982,-74.079651,Vacant Building
277,EGE AVENUE,277 EGE AVENUE,JERSEY CITY,40.7166799,-74.087269,Vacant Building
100,EGE AVENUE,100 EGE AVENUE,JERSEY CITY,40.71251,-74.079827,Vacant Building
15,EMORY STREET,15 EMORY STREET,JERSEY CITY,40.7193177,-74.072371,Vacant Building
86,ESSEX STREET,86 ESSEX STREET,JERSEY CITY,40.713317,-74.037708,Vacant Building
223,FAIRMOUNT AVENUE,223 FAIRMOUNT AVENUE,JERSEY CITY,40.722277,-74.068911,Vacant Building
452,FAIRMOUNT AVENUE,452 FAIRMOUNT AVENUE,JERSEY CITY,40.727541,-74.075597,Vacant Building
250-254,FAIRMOUNT AVENUE,250-254 FAIRMOUNT AVENUE,JERSEY CITY,40.723401,-74.06889,Vacant Building
13,FAIRMOUNT AVENUE,13 FAIRMOUNT AVENUE,JERSEY CITY,40.7175317,-74.061574,Vacant Building
40,FAIRMOUNT AVENUE,40 FAIRMOUNT AVENUE,JERSEY CITY,40.7181252,-74.062569,Vacant Building
35,FAIRMOUNT AVENUE,35 FAIRMOUNT AVENUE,JERSEY CITY,40.717778,-74.062466,Vacant Building
13,FAIRVIEW AVENUE,13 FAIRVIEW AVENUE,JERSEY CITY,40.7217328,-74.0691492,Vacant Building
204.5,FIFTH STREET,204.5 FIFTH STREET,JERSEY CITY,40.724775,-74.042811,Vacant Building
217.5,FIFTH STREET,217.5 FIFTH STREET,JERSEY CITY,40.724443,-74.043474,Vacant Building
261,FIFTH STREET,261 FIFTH STREET,JERSEY CITY,40.724596,-74.045311,Vacant Building
340,FIFTH STREET,340 FIFTH STREET,JERSEY CITY,40.725251,-74.049071,Vacant Building
355,FIFTH STREET,355 FIFTH STREET,JERSEY CITY,40.725146,-74.0498368,Vacant Building
217,FIFTH STREET,217 FIFTH STREET,JERSEY CITY,40.724443,-74.043474,Vacant Building
160,FIRST STREET,160 FIRST STREET,JERSEY CITY,40.7216493,-74.0402107,Vacant Building
162,FIRST STREET,162 FIRST STREET,JERSEY CITY,40.72167,-74.040167,Vacant Building
35,FISK STREET,35 FISK STREET,JERSEY CITY,40.713272,-74.092332,Vacant Building
329,FORREST AVENUE,329 FORREST AVENUE,JERSEY CITY,40.7132323,-74.0778829,Vacant Building
273,FORREST STREET,273 FORREST STREET,JERSEY CITY,40.712147,-74.076102,Vacant Building
275,FORREST STREET,275 FORREST STREET,JERSEY CITY,40.712162,-74.076142,Vacant Building
295,FORREST STREET,295 FORREST STREET,JERSEY CITY,40.712464,-74.076639,Vacant Building
318,FORREST STREET,318 FORREST STREET,JERSEY CITY,40.713379,-74.077325,Vacant Building
323,FORREST STREET,323 FORREST STREET,JERSEY CITY,40.713095,-74.077731,Vacant Building
324,FORREST STREET,324 FORREST STREET,JERSEY CITY,40.713498,-74.07755,Vacant Building
325,FORREST STREET,325 FORREST STREET,JERSEY CITY,40.713127,-74.077791,Vacant Building
326,FORREST STREET,326 FORREST STREET,JERSEY CITY,40.7135279,-74.077606,Vacant Building
286-288,FORREST STREET,286-288 FORREST STREET,JERSEY CITY,40.712828,-74.076285,Vacant Building
269,FORREST STREET,269 FORREST STREET,JERSEY CITY,40.712116,-74.076021,Vacant Building
334,FORREST STREET,334 FORREST STREET,JERSEY CITY,40.7136259,-74.0779095,Vacant Building
290,FORREST STREET,290 FORREST STREET,JERSEY CITY,40.712887,-74.076397,Vacant Building
241,FOURTH STREET,241 FOURTH STREET,JERSEY CITY,40.723776,-74.044683,Vacant Building
349,FOURTH STREET,349 FOURTH STREET,JERSEY CITY,40.72427,-74.049879,Vacant Building
204,FREEMAN AVENUE,204 FREEMAN AVENUE,JERSEY CITY,40.72967,-74.081851,Vacant Building
225,FREEMAN AVENUE,225 FREEMAN AVENUE,JERSEY CITY,40.73039,-74.081964,Vacant Building
197,FREEMAN AVENUE,197 FREEMAN AVENUE,JERSEY CITY,40.7296727,-74.0823651,Vacant Building
208,Freeman Avenue,208 Freeman Avenue,JERSEY CITY,40.729741,-74.081796,Vacant Building
17,FRONT STREET,17 FRONT STREET,JERSEY CITY,40.726801,-74.061179,Vacant Building
20,FULTON AVENUE,20 FULTON AVENUE,JERSEY CITY,40.700598,-74.08094,Vacant Building
32,FULTON AVENUE,32 FULTON AVENUE,JERSEY CITY,40.700929,-74.081263,Vacant Building
35,FULTON AVENUE,35 FULTON AVENUE,JERSEY CITY,40.700686,-74.08169,Vacant Building
109,FULTON AVENUE,109 FULTON AVENUE,JERSEY CITY,40.702442,-74.083877,Vacant Building
172,FULTON AVENUE,172 FULTON AVENUE,JERSEY CITY,40.704186,-74.08571,Vacant Building
180,FULTON AVENUE,180 FULTON AVENUE,JERSEY CITY,40.704365,-74.085983,Vacant Building
239,FULTON AVENUE,239 FULTON AVENUE,JERSEY CITY,40.705257,-74.08842,Vacant Building
241,FULTON AVENUE,241 FULTON AVENUE,JERSEY CITY,40.7053115,-74.0884759,Vacant Building
270,FULTON AVENUE,270 FULTON AVENUE,JERSEY CITY,40.7065144,-74.0895423,Vacant Building
148-150,FULTON AVENUE,148-150 FULTON AVENUE,JERSEY CITY,40.703655,-74.0848989,Vacant Building
162,FULTON AVENUE,162 FULTON AVENUE,JERSEY CITY,40.703964,-74.085371,Vacant Building
185,FULTON AVENUE,185 FULTON AVENUE,JERSEY CITY,40.704136,-74.086459,Vacant Building
244,FULTON AVENUE,244 FULTON AVENUE,JERSEY CITY,40.705688,-74.088245,Vacant Building
219,FULTON AVENUE,219 FULTON AVENUE,JERSEY CITY,40.704907,-74.087688,Vacant Building
86,FULTON AVENUE,86 FULTON AVENUE,JERSEY CITY,40.702232,-74.082727,Vacant Building
46,GARDNER AVENUE,46 GARDNER AVENUE,JERSEY CITY,40.720357,-74.069007,Vacant Building
54,GARDNER AVENUE,54 GARDNER AVENUE,JERSEY CITY,40.7204849,-74.069295,Vacant Building
58,GARDNER AVENUE,58 GARDNER AVENUE,JERSEY CITY,40.720554,-74.069451,Vacant Building
71,GARDNER AVENUE,71 GARDNER AVENUE,JERSEY CITY,40.72034,-74.070151,Vacant Building
512,GARFIELD AVENUE,512 GARFIELD AVENUE,JERSEY CITY,40.699035,-74.081207,Vacant Building
524,GARFIELD AVENUE,524 GARFIELD AVENUE,JERSEY CITY,40.699266,-74.080881,Vacant Building
591,GARFIELD AVENUE,591 GARFIELD AVENUE,JERSEY CITY,40.701002,-74.079064,Vacant Building
623,GARFIELD AVENUE,623 GARFIELD AVENUE,JERSEY CITY,40.701673,-74.0779,Vacant Building
625,GARFIELD AVENUE,625 GARFIELD AVENUE,JERSEY CITY,40.701721,-74.077827,Vacant Building
676,GARFIELD AVENUE,676 GARFIELD AVENUE,JERSEY CITY,40.702793,-74.075985,Vacant Building
734,GARFIELD AVENUE,734 GARFIELD AVENUE,JERSEY CITY,40.704761,-74.074592,Vacant Building
1052,GARFIELD AVENUE,1052 GARFIELD AVENUE,JERSEY CITY,40.713964,-74.067446,Vacant Building
176,GARFIELD AVENUE,176 GARFIELD AVENUE,JERSEY CITY,40.690593,-74.093579,Vacant Building
721,GARFIELD AVENUE,721 GARFIELD AVENUE,JERSEY CITY,40.704482,-74.0753919,Vacant Building
176,GARFIELD AVENUE,176 GARFIELD AVENUE,JERSEY CITY,40.690593,-74.093579,Vacant Building
737-739,GARFIELD AVENUE,737-739 GARFIELD AVENUE,JERSEY CITY,40.704961,-74.074958,Vacant Building
723,GARFIELD AVENUE,723 GARFIELD AVENUE,JERSEY CITY,40.704541,-74.075346,Vacant Building
58,GARRISON AVENUE,58 GARRISON AVENUE,JERSEY CITY,40.730873,-74.06898,Vacant Building
167,GATES AVENUE,167 GATES AVENUE,JERSEY CITY,40.693135,-74.098315,Vacant Building
23,GAUTIER AVENUE,23 GAUTIER AVENUE,JERSEY CITY,40.725642,-74.07887,Vacant Building
72,GAUTIER AVENUE,72 GAUTIER AVENUE,JERSEY CITY,40.727099,-74.080999,Vacant Building
80,GAUTIER AVENUE,80 GAUTIER AVENUE,JERSEY CITY,40.727238,-74.081311,Vacant Building
125,GIFFORD AVENUE,125 GIFFORD AVENUE,JERSEY CITY,40.722465,-74.078613,Vacant Building
126,GLENWOOD AVENUE,126 GLENWOOD AVENUE,JERSEY CITY,40.728579,-74.0726059,Vacant Building
130,GLENWOOD AVENUE,130 GLENWOOD AVENUE,JERSEY CITY,40.728643,-74.072765,Vacant Building
135,GRACE STREET,135 GRACE STREET,JERSEY CITY,40.756043,-74.049352,Vacant Building
163,GRAND STREET,163 GRAND STREET,JERSEY CITY,40.715448,-74.04127,Vacant Building
723,GRAND STREET,723 GRAND STREET,JERSEY CITY,40.715424,-74.067701,Vacant Building
746,GRAND STREET,746 GRAND STREET,JERSEY CITY,40.715415,-74.069128,Vacant Building
780,GRAND STREET,780 GRAND STREET,JERSEY CITY,40.715148,-74.070601,Vacant Building
782,GRAND STREET,782 GRAND STREET,JERSEY CITY,40.71511,-74.070661,Vacant Building
784,GRAND STREET,784 GRAND STREET,JERSEY CITY,40.715006,-74.070711,Vacant Building
822,GRAND STREET,822 GRAND STREET,JERSEY CITY,40.714698,-74.072338,Vacant Building
39,GRANT AVENUE,39 GRANT AVENUE,JERSEY CITY,40.7079867,-74.079296,Vacant Building
67,GRANT AVENUE,67 GRANT AVENUE,JERSEY CITY,40.708567,-74.080328,Vacant Building
77,GRANT AVENUE,77 GRANT AVENUE,JERSEY CITY,40.708808,-74.080725,Vacant Building
107,GRANT AVENUE,107 GRANT AVENUE,JERSEY CITY,40.709577,-74.081933,Vacant Building
128,GRANT AVENUE,128 GRANT AVENUE,JERSEY CITY,40.71038,-74.0824564,Vacant Building
133,GRANT AVENUE,133 GRANT AVENUE,JERSEY CITY,40.710035,-74.082919,Vacant Building
147,GRANT AVENUE,147 GRANT AVENUE,JERSEY CITY,40.710313,-74.083128,Vacant Building
170,GRANT AVENUE,170 GRANT AVENUE,JERSEY CITY,40.711209,-74.0841082,Vacant Building
237,GRANT AVENUE,237 GRANT AVENUE,JERSEY CITY,40.712535,-74.086725,Vacant Building
259,GRANT AVENUE,259 GRANT AVENUE,JERSEY CITY,40.712978,-74.087455,Vacant Building
260,GRANT AVENUE,260 GRANT AVENUE,JERSEY CITY,40.713322,-74.087222,Vacant Building
10,GRANT AVENUE,10 GRANT AVENUE,JERSEY CITY,40.7076123,-74.0780376,Vacant Building
40,GRANT AVENUE,40 GRANT AVENUE,JERSEY CITY,40.708204,-74.078851,Vacant Building
125,GRANT AVENUE,125 GRANT AVENUE,JERSEY CITY,40.709945,-74.082571,Vacant Building
7.5,GRANT AVENUE,7.5 GRANT AVENUE,JERSEY CITY,40.7072629,-74.0780037,Vacant Building
7.5,GRANT AVENUE,7.5 GRANT AVENUE,JERSEY CITY,40.7072629,-74.0780037,Vacant Building
274A,GRANT AVENUE,274A GRANT AVENUE,JERSEY CITY,40.713642,-74.087749,Vacant Building
285,GRANT AVENUE,285 GRANT AVENUE,JERSEY CITY,40.713543,-74.088387,Vacant Building
116,GRANT AVENUE,116 GRANT AVENUE,JERSEY CITY,40.7101309,-74.081909,Vacant Building
35,GREENVILLE AVENUE,35 GREENVILLE AVENUE,JERSEY CITY,40.697139,-74.094601,Vacant Building
44,GREENVILLE AVENUE,44 GREENVILLE AVENUE,JERSEY CITY,40.697657,-74.09437,Vacant Building
45,GREENVILLE AVENUE,45 GREENVILLE AVENUE,JERSEY CITY,40.697428,-74.094848,Vacant Building
73,GREENVILLE AVENUE,73 GREENVILLE AVENUE,JERSEY CITY,40.6982349,-74.0955369,Vacant Building
145,GREENVILLE AVENUE,145 GREENVILLE AVENUE,JERSEY CITY,40.7004639,-74.097382,Vacant Building
3,GREENWICH DRIVE,3 GREENWICH DRIVE,JERSEY CITY,40.7170763,-74.0932334,Vacant Building
260,GRIFFITH STREET,260 GRIFFITH STREET,JERSEY CITY,40.7478806,-74.0537979,Vacant Building
275,GRIFFITH STREET,275 GRIFFITH STREET,JERSEY CITY,40.747789,-74.0546789,Vacant Building
248,GROVE STREET,248 GROVE STREET,JERSEY CITY,40.716489,-74.044312,Vacant Building
363,GROVE STREET,363 GROVE STREET,JERSEY CITY,40.7214133,-74.0429368,Vacant Building
LI,GROVE STREET,LI GROVE STREET,JERSEY CITY,40.7109942,-74.1069249,Vacant Building
312,HALLADAY STREET,312 HALLADAY STREET,JERSEY CITY,40.712898,-74.061724,Vacant Building
317,HALLADAY STREET,317 HALLADAY STREET,JERSEY CITY,40.713142,-74.062028,Vacant Building
193,HANCOCK AVENUE,193 HANCOCK AVENUE,JERSEY CITY,40.749272,-74.0455099,Vacant Building
37,HARMON STREET,37 HARMON STREET,JERSEY CITY,40.7149669,-74.0688498,Vacant Building
87,HARMON STREET,87 HARMON STREET,JERSEY CITY,40.7156341,-74.0707404,Vacant Building
214,HARRISON AVENUE,214 HARRISON AVENUE,JERSEY CITY,40.7204729,-74.0779751,Vacant Building
247,HARRISON AVENUE,247 HARRISON AVENUE,JERSEY CITY,40.72064,-74.079014,Vacant Building
271,HARRISON AVENUE,271 HARRISON AVENUE,JERSEY CITY,40.721063,-74.07984,Vacant Building
294,HARRISON AVENUE,294 HARRISON AVENUE,JERSEY CITY,40.721858,-74.0803903,Vacant Building
122,HARRISON AVENUE,122 HARRISON AVENUE,JERSEY CITY,40.7187999,-74.0741832,Vacant Building
164,HARRISON AVENUE,164 HARRISON AVENUE,JERSEY CITY,40.7196542,-74.0758566,Vacant Building
20,HIGHLAND AVENUE,20 HIGHLAND AVENUE,JERSEY CITY,40.727717,-74.067944,Vacant Building
432,HOBOKEN AVENUE,432 HOBOKEN AVENUE,JERSEY CITY,40.734892,-74.057763,Vacant Building
416-418,HOBOKEN AVENUE,416-418 HOBOKEN AVENUE,JERSEY CITY,40.734588,-74.057226,Vacant Building
42,HOPKINS AVENUE,42 HOPKINS AVENUE,JERSEY CITY,40.7351278,-74.0523559,Vacant Building
206,HOPKINS AVENUE,206 HOPKINS AVENUE,JERSEY CITY,40.7387364,-74.0594164,Vacant Building
220,HOPKINS AVENUE,220 HOPKINS AVENUE,JERSEY CITY,40.7389439,-74.06014,Vacant Building
16,HOWARD PLACE,16 HOWARD PLACE,JERSEY CITY,40.721893,-74.066742,Vacant Building
66,HUTTON STREET,66 HUTTON STREET,JERSEY CITY,40.744221,-74.048461,Vacant Building
173,HUTTON STREET,173 HUTTON STREET,JERSEY CITY,40.745773,-74.053644,Vacant Building
188.5,HUTTON STREET,188.5 HUTTON STREET,JERSEY CITY,40.7426238,-74.0455345,Vacant Building
258,HUTTON STREET,258 HUTTON STREET,JERSEY CITY,40.747622,-74.057345,Vacant Building
257,HUTTON STREET,257 HUTTON STREET,JERSEY CITY,40.7472462,-74.0575039,Vacant Building
29A,IRVING STREET,29A IRVING STREET,JERSEY CITY,40.7531419,-74.0460949,Vacant Building
31,IRVING STREET,31 IRVING STREET,JERSEY CITY,40.753163,-74.046149,Vacant Building
33,IRVING STREET,33 IRVING STREET,JERSEY CITY,40.753189,-74.046215,Vacant Building
35,IRVING STREET,35 IRVING STREET,JERSEY CITY,40.753221,-74.046295,Vacant Building
12,IVY STREET,12 IVY STREET,JERSEY CITY,40.71625,-74.0665889,Vacant Building
591,JERSEY AVENUE,591 JERSEY AVENUE,JERSEY CITY,40.723921,-74.04595,Vacant Building
615,JERSEY AVENUE,615 JERSEY AVENUE,JERSEY CITY,40.7250944,-74.0456457,Vacant Building
69.5,JEWETT AVENUE,69.5 JEWETT AVENUE,JERSEY CITY,40.71998,-74.067378,Vacant Building
71,JEWETT AVENUE,71 JEWETT AVENUE,JERSEY CITY,40.721077,-74.069888,Vacant Building
69,JEWETT AVENUE,69 JEWETT AVENUE,JERSEY CITY,40.721031,-74.069777,Vacant Building
44,JEWETT AVENUE,44 JEWETT AVENUE,JERSEY CITY,40.7210437,-74.0688888,Vacant Building
51,JEWETT AVENUE,51 JEWETT AVENUE,JERSEY CITY,40.7207869,-74.0691364,Vacant Building
63,JEWETT AVENUE,63 JEWETT AVENUE,JERSEY CITY,40.72094,-74.069574,Vacant Building
233,JEWETT AVENUE,233 JEWETT AVENUE,JERSEY CITY,40.7241646,-74.0765327,Vacant Building
22,JEWETT AVENUE,22 JEWETT AVENUE,JERSEY CITY,40.72064,-74.067959,Vacant Building
7,JEWETT AVENUE,7 JEWETT AVENUE,JERSEY CITY,40.720016,-74.06746,Vacant Building
69.5,JEWETT AVENUE,69.5 JEWETT AVENUE,JERSEY CITY,40.71998,-74.067378,Vacant Building
171,JEWETT AVENUE,171 JEWETT AVENUE,JERSEY CITY,40.723078,-74.074118,Vacant Building
313,JOHNSTON AVENUE,313 JOHNSTON AVENUE,JERSEY CITY,40.712474,-74.057494,Vacant Building
315,JOHNSTON AVENUE,315 JOHNSTON AVENUE,JERSEY CITY,40.712524,-74.0575549,Vacant Building
317,JOHNSTON AVENUE,317 JOHNSTON AVENUE,JERSEY CITY,40.7125739,-74.0576169,Vacant Building
480,JOHNSTON AVENUE,480 JOHNSTON AVENUE,JERSEY CITY,40.717609,-74.06277,Vacant Building
550,JOHNSTON AVENUE,550 JOHNSTON AVENUE,JERSEY CITY,40.718827,-74.064982,Vacant Building
262-272,JOHNSTON AVENUE,262-272 JOHNSTON AVENUE,JERSEY CITY,40.7114397,-74.0558837,Vacant Building
319-21,JOHNSTON AVENUE,319-21 JOHNSTON AVENUE,JERSEY CITY,40.7127663,-74.0575528,Vacant Building
319-321,JOHNSTON AVENUE,319-321 JOHNSTON AVENUE,JERSEY CITY,40.7128455,-74.0576498,Vacant Building
2,JORDAN AVENUE,2 JORDAN AVENUE,JERSEY CITY,40.723829,-74.066226,Vacant Building
83,KEARNEY AVENUE,83 KEARNEY AVENUE,JERSEY CITY,40.7113,-74.079905,Vacant Building
113,KEARNEY AVENUE,113 KEARNEY AVENUE,JERSEY CITY,40.711916,-74.08086,Vacant Building
270,KEARNEY AVENUE,270 KEARNEY AVENUE,JERSEY CITY,40.715361,-74.086337,Vacant Building
83,KEARNEY AVENUE,83 KEARNEY AVENUE,JERSEY CITY,40.7113,-74.079905,Vacant Building
123.5,KEARNEY AVENUE,123.5 KEARNEY AVENUE,JERSEY CITY,40.7096084,-74.076726,Vacant Building
1521,KENNEDY BOULEVARD,1521 KENNEDY BOULEVARD,JERSEY CITY,40.694241,-74.1009739,Vacant Building
1631,KENNEDY BOULEVARD,1631 KENNEDY BOULEVARD,JERSEY CITY,40.6971754,-74.0974867,Vacant Building
1882,KENNEDY BOULEVARD,1882 KENNEDY BOULEVARD,JERSEY CITY,40.7040914,-74.0902367,Vacant Building
1904,KENNEDY BOULEVARD,1904 KENNEDY BOULEVARD,JERSEY CITY,40.7049264,-74.0899111,Vacant Building
2131,KENNEDY BOULEVARD,2131 KENNEDY BOULEVARD,JERSEY CITY,40.711779,-74.0845439,Vacant Building
2133,KENNEDY BOULEVARD,2133 KENNEDY BOULEVARD,JERSEY CITY,40.711855,-74.084521,Vacant Building
2199,KENNEDY BOULEVARD,2199 KENNEDY BOULEVARD,JERSEY CITY,40.7140709,-74.083371,Vacant Building
2315,KENNEDY BOULEVARD,2315 KENNEDY BOULEVARD,JERSEY CITY,40.71755,-74.080426,Vacant Building
2456,KENNEDY BOULEVARD,2456 KENNEDY BOULEVARD,JERSEY CITY,40.72115,-74.075973,Vacant Building
2672,KENNEDY BOULEVARD,2672 KENNEDY BOULEVARD,JERSEY CITY,40.727509,-74.070435,Vacant Building
2771,KENNEDY BOULEVARD,2771 KENNEDY BOULEVARD,JERSEY CITY,40.730768,-74.068645,Vacant Building
3081,KENNEDY BOULEVARD,3081 KENNEDY BOULEVARD,JERSEY CITY,40.738605,-74.0625614,Vacant Building
3168,KENNEDY BOULEVARD,3168 KENNEDY BOULEVARD,JERSEY CITY,40.740947,-74.060519,Vacant Building
2453,KENNEDY BOULEVARD,2453 KENNEDY BOULEVARD,JERSEY CITY,40.72145,-74.076542,Vacant Building
3671,KENNEDY BOULEVARD,3671 KENNEDY BOULEVARD,JERSEY CITY,40.75589,-74.047215,Vacant Building
2456,KENNEDY BOULEVARD,2456 KENNEDY BOULEVARD,JERSEY CITY,40.72115,-74.075973,Vacant Building
44,KENSINGTON AVENUE,44 KENSINGTON AVENUE,JERSEY CITY,40.722674,-74.0738049,Vacant Building
120,KENSINGTON AVENUE,120 KENSINGTON AVENUE,JERSEY CITY,40.723984,-74.076678,Vacant Building
130,KENSINGTON AVENUE,130 KENSINGTON AVENUE,JERSEY CITY,40.7241619,-74.0770694,Vacant Building
170,LAFAYETTE STREET,170 LAFAYETTE STREET,JERSEY CITY,40.71521,-74.063847,Vacant Building
59,LAIDLAW AVENUE,59 LAIDLAW AVENUE,JERSEY CITY,40.736453,-74.052547,Vacant Building
202,LEMBECK AVENUE,202 LEMBECK AVENUE,JERSEY CITY,40.697148,-74.0949739,Vacant Building
211,LEMBECK AVENUE,211 LEMBECK AVENUE,JERSEY CITY,40.697232,-74.095498,Vacant Building
285,LEMBECK AVENUE,285 LEMBECK AVENUE,JERSEY CITY,40.6995938,-74.0974274,Vacant Building
287,LEMBECK AVENUE,287 LEMBECK AVENUE,JERSEY CITY,40.699636,-74.097497,Vacant Building
302,LEMBECK AVENUE,302 LEMBECK AVENUE,JERSEY CITY,40.700226,-74.097537,Vacant Building
321,LEMBECK AVENUE,321 LEMBECK AVENUE,JERSEY CITY,40.700551,-74.098285,Vacant Building
335,LEMBECK AVENUE,335 LEMBECK AVENUE,JERSEY CITY,40.700936,-74.098605,Vacant Building
165,LEMBECK AVENUE,165 LEMBECK AVENUE,JERSEY CITY,40.6960162,-74.094418,Vacant Building
10,LEONARD STREET,10 LEONARD STREET,JERSEY CITY,40.7548913,-74.0437507,Vacant Building
15,LEONARD STREET,15 LEONARD STREET,JERSEY CITY,40.75481,-74.04418,Vacant Building
89A,LEONARD STREET,89A LEONARD STREET,JERSEY CITY,40.756124,-74.047516,Vacant Building
18.5,LEWIS AVENUE,18.5 LEWIS AVENUE,JERSEY CITY,40.7400283,-74.070771,Vacant Building
10,LEXINGTON AVENUE,10 LEXINGTON AVENUE,JERSEY CITY,40.7173884,-74.0777073,Vacant Building
68,LEXINGTON AVENUE,68 LEXINGTON AVENUE,JERSEY CITY,40.7183885,-74.0799903,Vacant Building
70,LEXINGTON AVENUE,70 LEXINGTON AVENUE,JERSEY CITY,40.718589,-74.079948,Vacant Building
147,LEXINGTON AVENUE,147 LEXINGTON AVENUE,JERSEY CITY,40.719753,-74.083403,Vacant Building
182,LEXINGTON AVENUE,182 LEXINGTON AVENUE,JERSEY CITY,40.7206959,-74.084447,Vacant Building
249,LEXINGTON AVENUE,249 LEXINGTON AVENUE,JERSEY CITY,40.721716,-74.087825,Vacant Building
35,LEXINGTON AVENUE,35 LEXINGTON AVENUE,JERSEY CITY,40.717613,-74.079022,Vacant Building
189,LEXINGTON AVENUE,189 LEXINGTON AVENUE,JERSEY CITY,40.720495,-74.085053,Vacant Building
247,LEXINGTON AVENUE,247 LEXINGTON AVENUE,JERSEY CITY,40.72168,-74.087744,Vacant Building
22,LIBERTY AVENUE,22 LIBERTY AVENUE,JERSEY CITY,40.736529,-74.064521,Vacant Building
171,LIBERTY AVENUE,171 LIBERTY AVENUE,JERSEY CITY,40.742758,-74.062215,Vacant Building
271,LIBERTY AVENUE,271 LIBERTY AVENUE,JERSEY CITY,40.746645,-74.059526,Vacant Building
571,LIBERTY AVENUE,571 LIBERTY AVENUE,JERSEY CITY,40.756398,-74.052867,Vacant Building
652,LIBERTY AVENUE,652 LIBERTY AVENUE,JERSEY CITY,40.7586299,-74.0507499,Vacant Building
412,LIBERTY AVENUE,412 LIBERTY AVENUE,JERSEY CITY,40.750691,-74.056124,Vacant Building
114,LINCOLN STREET,114 LINCOLN STREET,JERSEY CITY,40.7485925,-74.0539935,Vacant Building
122,LINCOLN STREET,122 LINCOLN STREET,JERSEY CITY,40.748933,-74.054185,Vacant Building
128,LINCOLN STREET,128 LINCOLN STREET,JERSEY CITY,40.7490084,-74.0544602,Vacant Building
149,LINCOLN STREET,149 LINCOLN STREET,JERSEY CITY,40.749042,-74.055941,Vacant Building
262,LINDEN AVENUE,262 LINDEN AVENUE,JERSEY CITY,40.700089,-74.095317,Vacant Building
312,LINDEN AVENUE,312 LINDEN AVENUE,JERSEY CITY,40.701506,-74.096508,Vacant Building
218,LINDEN AVENUE,218 LINDEN AVENUE,JERSEY CITY,40.698616,-74.094048,Vacant Building
24,LINDEN AVENUE,24 LINDEN AVENUE,JERSEY CITY,40.6926599,-74.0890299,Vacant Building
22,LONG STREET,22 LONG STREET,JERSEY CITY,40.699791,-74.09107,Vacant Building
10,MADISON AVENUE,10 MADISON AVENUE,JERSEY CITY,40.714797,-74.073043,Vacant Building
66,MADISON AVENUE,66 MADISON AVENUE,JERSEY CITY,40.716087,-74.071888,Vacant Building
16,MADISON AVENUE,16 MADISON AVENUE,JERSEY CITY,40.714932,-74.07292,Vacant Building
28,MAGNOLIA AVENUE,28 MAGNOLIA AVENUE,JERSEY CITY,40.729011,-74.056169,Vacant Building
78,MALLORY AVENUE,78 MALLORY AVENUE,JERSEY CITY,40.7166939,-74.090372,Vacant Building
91,MALLORY AVENUE,91 MALLORY AVENUE,JERSEY CITY,40.717472,-74.090404,Vacant Building
107,MALLORY AVENUE,107 MALLORY AVENUE,JERSEY CITY,40.718034,-74.089887,Vacant Building
166,MALLORY AVENUE,166 MALLORY AVENUE,JERSEY CITY,40.719893,-74.087431,Vacant Building
208,MALLORY AVENUE,208 MALLORY AVENUE,JERSEY CITY,40.721267,-74.085812,Vacant Building
447,MALLORY AVENUE,447 MALLORY AVENUE,JERSEY CITY,40.729393,-74.08059,Vacant Building
431,MALLORY AVENUE,431 MALLORY AVENUE,JERSEY CITY,#N/A,#N/A,#N/A
19,MANHATTAN AVENUE,19 MANHATTAN AVENUE,JERSEY CITY,40.741684,-74.049879,Vacant Building
41,MANHATTAN AVENUE,41 MANHATTAN AVENUE,JERSEY CITY,40.742083,-74.050732,Vacant Building
316,MANHATTAN AVENUE,316 MANHATTAN AVENUE,JERSEY CITY,40.747526,-74.062531,Vacant Building
12,MANNING AVENUE,12 MANNING AVENUE,JERSEY CITY,40.713724,-74.064556,Vacant Building
14,MANNING AVENUE,14 MANNING AVENUE,JERSEY CITY,40.713794,-74.064456,Vacant Building
376,MARIN BOULEVARD,376 MARIN BOULEVARD,JERSEY CITY,40.721885,-74.040639,Vacant Building
376-78,MARIN BOULEVARD,376-78 MARIN BOULEVARD,JERSEY CITY,40.7128621,-74.0433126,Vacant Building
14,MARION PLACE,14 MARION PLACE,JERSEY CITY,40.7353962,-74.071543,Vacant Building
14,MARTIN LUTHER KING,14 MARTIN LUTHER KING,JERSEY CITY,40.70079,-74.090548,Vacant Building
32,MARTIN LUTHER KING,32 MARTIN LUTHER KING,JERSEY CITY,40.701304,-74.089915,Vacant Building
164.5,MARTIN LUTHER KING,164.5 MARTIN LUTHER KING,JERSEY CITY,40.7007819,-74.0910677,Vacant Building
181,MARTIN LUTHER KING,181 MARTIN LUTHER KING,JERSEY CITY,40.706085,-74.0850619,Vacant Building
260,MARTIN LUTHER KING,260 MARTIN LUTHER KING,JERSEY CITY,40.7079708,-74.0822464,Vacant Building
292,MARTIN LUTHER KING,292 MARTIN LUTHER KING,JERSEY CITY,40.7088589,-74.080965,Vacant Building
421,MARTIN LUTHER KING,421 MARTIN LUTHER KING,JERSEY CITY,40.712795,-74.077522,Vacant Building
469,MARTIN LUTHER KING,469 MARTIN LUTHER KING,JERSEY CITY,40.714073,-74.076247,Vacant Building
479,MARTIN LUTHER KING,479 MARTIN LUTHER KING,JERSEY CITY,40.714426,-74.075934,Vacant Building
545,MARTIN LUTHER KING,545 MARTIN LUTHER KING,JERSEY CITY,40.71637,-74.0741278,Vacant Building
417-419,MARTIN LUTHER KING,417-419 MARTIN LUTHER KING,JERSEY CITY,40.7127159,-74.0775295,Vacant Building
467.5,MARTIN LUTHER KING,467.5 MARTIN LUTHER KING,JERSEY CITY,40.7007819,-74.0910677,Vacant Building
36,MARTIN LUTHER KING,36 MARTIN LUTHER KING,JERSEY CITY,40.701347,-74.089772,Vacant Building
127-133,MARTIN LUTHER KING,127-133 MARTIN LUTHER KING,JERSEY CITY,40.704445,-74.086918,Vacant Building
198,MC ADOO AVENUE,198 MC ADOO AVENUE,JERSEY CITY,40.70596,-74.0955819,Vacant Building
90,MC ADOO AVENUE,90 MC ADOO AVENUE,JERSEY CITY,40.702822,-74.092965,Vacant Building
48,MCADOO AVENUE,48 MCADOO AVENUE,JERSEY CITY,40.70127,-74.091575,Vacant Building
41,MCADOO AVENUE,41 MCADOO AVENUE,JERSEY CITY,40.700931,-74.091778,Vacant Building
118,MCADOO AVENUE,118 MCADOO AVENUE,JERSEY CITY,40.7036703,-74.0937099,Vacant Building
18,MCDOUGAL STREET .,18 MCDOUGAL STREET .,JERSEY CITY,40.714748,-74.069069,Vacant Building
447,MERCER STREET,447 MERCER STREET,JERSEY CITY,40.72407,-74.062922,Vacant Building
451,MERCER STREET,451 MERCER STREET,JERSEY CITY,40.724116,-74.063011,Vacant Building
493,MERCER STREET,493 MERCER STREET,JERSEY CITY,40.724894,-74.064217,Vacant Building
158-162,MERCER STREET,158-162 MERCER STREET,JERSEY CITY,40.720111,-74.0496414,Vacant Building
4,MERCER STREET,4 MERCER STREET,JERSEY CITY,40.718185,-74.042467,Vacant Building
89,MERSELES STREET,89 MERSELES STREET,JERSEY CITY,40.721606,-74.055469,Vacant Building
28,MINA DRIVE,28 MINA DRIVE,JERSEY CITY,40.6996899,-74.103187,Vacant Building
125,MONITOR STREET,125 MONITOR STREET,JERSEY CITY,40.713223,-74.056656,Vacant Building
427.5,MONMOUTH STREET,427.5 MONMOUTH STREET,JERSEY CITY,40.724649,-74.0491289,Vacant Building
430,MONMOUTH STREET,430 MONMOUTH STREET,JERSEY CITY,40.7246945,-74.0487839,Vacant Building
427A,MONMOUTH STREET,427A MONMOUTH STREET,JERSEY CITY,40.724649,-74.0491289,Vacant Building
755,MONTGOMERY STREET,755 MONTGOMERY STREET,JERSEY CITY,40.725399,-74.0687729,Vacant Building
95-97,MONTGOMERY STREET,95-97 MONTGOMERY STREET,JERSEY CITY,40.7168031,-74.0387321,Vacant Building
227,MONTGOMERY STREET,227 MONTGOMERY STREET,JERSEY CITY,40.717547,-74.045014,Vacant Building
618,MONTGOMERY STREET,618 MONTGOMERY STREET,JERSEY CITY,40.7237,-74.06296,Vacant Building
16,MONTICELLO AVENUE,16 MONTICELLO AVENUE,JERSEY CITY,40.7153009,-74.073769,Vacant Building
24,MONTICELLO AVENUE,24 MONTICELLO AVENUE,JERSEY CITY,40.7154816,-74.0736938,Vacant Building
119,MONTICELLO AVENUE,119 MONTICELLO AVENUE,JERSEY CITY,40.718778,-74.071926,Vacant Building
137,MONTICELLO AVENUE,137 MONTICELLO AVENUE,JERSEY CITY,40.719458,-74.071515,Vacant Building
142,MONTICELLO AVENUE,142 MONTICELLO AVENUE,JERSEY CITY,40.719221,-74.07108,Vacant Building
143,MONTICELLO AVENUE,143 MONTICELLO AVENUE,JERSEY CITY,40.719641,-74.071411,Vacant Building
220,MONTICELLO AVENUE,220 MONTICELLO AVENUE,JERSEY CITY,40.7221339,-74.069323,Vacant Building
224,MONTICELLO AVENUE,224 MONTICELLO AVENUE,JERSEY CITY,40.722262,-74.069228,Vacant Building
238,MONTICELLO AVENUE,238 MONTICELLO AVENUE,JERSEY CITY,40.722774,-74.069032,Vacant Building
141,MONTICELLO AVENUE,141 MONTICELLO AVENUE,JERSEY CITY,40.71958,-74.071447,Vacant Building
16,MORTON PLACE,16 MORTON PLACE,JERSEY CITY,40.7129369,-74.08249,Vacant Building
20,MORTON PLACE,20 MORTON PLACE,JERSEY CITY,40.7129959,-74.082601,Vacant Building
116,MYRTLE AVENUE,116 MYRTLE AVENUE,JERSEY CITY,40.7077669,-74.079562,Vacant Building
98,MYRTLE AVENUE,98 MYRTLE AVENUE,JERSEY CITY,40.7073369,-74.0789011,Vacant Building
109,MYRTLE AVENUE,109 MYRTLE AVENUE,JERSEY CITY,40.707327,-74.079631,Vacant Building
111,MYRTLE AVENUE,111 MYRTLE AVENUE,JERSEY CITY,40.707372,-74.079699,Vacant Building
119,MYRTLE AVENUE,119 MYRTLE AVENUE,JERSEY CITY,40.707554,-74.079976,Vacant Building
133,MYRTLE AVENUE,133 MYRTLE AVENUE,JERSEY CITY,40.7078739,-74.08044,Vacant Building
137,MYRTLE AVENUE,137 MYRTLE AVENUE,JERSEY CITY,40.707963,-74.080578,Vacant Building
139,MYRTLE AVENUE,139 MYRTLE AVENUE,JERSEY CITY,40.708007,-74.080647,Vacant Building
143,MYRTLE AVENUE,143 MYRTLE AVENUE,JERSEY CITY,40.708096,-74.080784,Vacant Building
149,MYRTLE AVENUE,149 MYRTLE AVENUE,JERSEY CITY,40.708229,-74.080991,Vacant Building
151,MYRTLE AVENUE,151 MYRTLE AVENUE,JERSEY CITY,40.708273,-74.0810599,Vacant Building
209,MYRTLE AVENUE,209 MYRTLE AVENUE,JERSEY CITY,40.7096812,-74.083231,Vacant Building
7,MYRTLE AVENUE,7 MYRTLE AVENUE,JERSEY CITY,40.70499,-74.075156,Vacant Building
9,MYRTLE AVENUE,9 MYRTLE AVENUE,JERSEY CITY,40.705015,-74.07523,Vacant Building
73,MYRTLE AVENUE,73 MYRTLE AVENUE,JERSEY CITY,40.706525,-74.078331,Vacant Building
52,NELSON AVENUE,52 NELSON AVENUE,JERSEY CITY,40.753786,-74.051775,Vacant Building
135,NELSON AVENUE,135 NELSON AVENUE,JERSEY CITY,40.756623,-74.050544,Vacant Building
162,NELSON AVENUE,162 NELSON AVENUE,JERSEY CITY,40.757422,-74.049257,Vacant Building
48,NEPTUNE AVENUE,48 NEPTUNE AVENUE,JERSEY CITY,40.6903099,-74.093419,Vacant Building
38,NEPTUNE AVENUE,38 NEPTUNE AVENUE,JERSEY CITY,40.68995,-74.093112,Vacant Building
12,NEW STREET,12 NEW STREET,JERSEY CITY,40.6972345,-74.0890588,Vacant Building
145,NEW YORK AVENUE,145 NEW YORK AVENUE,JERSEY CITY,40.741173,-74.047439,Vacant Building
201,NEW YORK AVENUE,201 NEW YORK AVENUE,JERSEY CITY,40.753168,-74.040283,Vacant Building
274,NEW YORK AVENUE,274 NEW YORK AVENUE,JERSEY CITY,40.745401,-74.044137,Vacant Building
295,NEW YORK AVENUE,295 NEW YORK AVENUE,JERSEY CITY,40.74633,-74.044146,Vacant Building
305,NEW YORK AVENUE,305 NEW YORK AVENUE,JERSEY CITY,40.746649,-74.043942,Vacant Building
396,NEW YORK AVENUE,396 NEW YORK AVENUE,JERSEY CITY,40.749569,-74.04145,Vacant Building
161,NEW YORK AVENUE,161 NEW YORK AVENUE,JERSEY CITY,40.741793,-74.047043,Vacant Building
136,NEWARK AVENUE,136 NEWARK AVENUE,JERSEY CITY,40.7204978,-74.0434543,Vacant Building
143,NEWARK AVENUE,143 NEWARK AVENUE,JERSEY CITY,40.720237,-74.044085,Vacant Building
624,NEWARK AVENUE,624 NEWARK AVENUE,JERSEY CITY,40.7334729,-74.057829,Vacant Building
823,NEWARK AVENUE,823 NEWARK AVENUE,JERSEY CITY,40.735431,-74.065996,Vacant Building
155,NEWARK AVENUE,155 NEWARK AVENUE,JERSEY CITY,40.720502,-74.0444885,Vacant Building
39,NEWKIRK STREET,39 NEWKIRK STREET,JERSEY CITY,40.7277922,-74.0614054,Vacant Building
349,NINTH STREET,349 NINTH STREET,JERSEY CITY,40.728625,-74.049677,Vacant Building
116,NORTH STREET,116 NORTH STREET,JERSEY CITY,40.7528092,-74.0461968,Vacant Building
132,NORTH STREET,132 NORTH STREET,JERSEY CITY,40.753118,-74.046818,Vacant Building
13,OAK STREET,13 OAK STREET,JERSEY CITY,40.712652,-74.075316,Vacant Building
37.5,OAK STREET,37.5 OAK STREET,JERSEY CITY,40.7126871,-74.0748746,Vacant Building
62,OAK STREET,62 OAK STREET,JERSEY CITY,40.714033,-74.076907,Vacant Building
89,OAK STREET,89 OAK STREET,JERSEY CITY,40.714218,-74.07827,Vacant Building
66.5,OAK STREET,66.5 OAK STREET,JERSEY CITY,40.7126871,-74.0748746,Vacant Building
187,OAKLAND STREET,187 OAKLAND STREET,JERSEY CITY,40.739006,-74.051715,Vacant Building
103,OCEAN AVENUE,103 OCEAN AVENUE,JERSEY CITY,40.692471,-74.094903,Vacant Building
331,OCEAN AVENUE,331 OCEAN AVENUE,JERSEY CITY,40.698614,-74.086551,Vacant Building
480,OCEAN AVENUE,480 OCEAN AVENUE,JERSEY CITY,40.702648,-74.081114,Vacant Building
487,OCEAN AVENUE,487 OCEAN AVENUE,JERSEY CITY,40.70328,-74.081157,Vacant Building
505,OCEAN AVENUE,505 OCEAN AVENUE,JERSEY CITY,40.703758,-74.080675,Vacant Building
668,OCEAN AVENUE,668 OCEAN AVENUE,JERSEY CITY,40.7089969,-74.076407,Vacant Building
678,OCEAN AVENUE,678 OCEAN AVENUE,JERSEY CITY,40.709219,-74.0762869,Vacant Building
758,OCEAN AVENUE,758 OCEAN AVENUE,JERSEY CITY,40.711773,-74.0750797,Vacant Building
275-279,OCEAN AVENUE,275-279 OCEAN AVENUE,JERSEY CITY,40.697202,-74.088645,Vacant Building
665-667,OCEAN AVENUE,665-667 OCEAN AVENUE,JERSEY CITY,40.7092,-74.0769679,Vacant Building
474,OCEAN AVENUE,474 OCEAN AVENUE,JERSEY CITY,40.702467,-74.081216,Vacant Building
480,OCEAN AVENUE,480 OCEAN AVENUE,JERSEY CITY,40.702648,-74.081114,Vacant Building
610,OCEAN AVENUE,610 OCEAN AVENUE,JERSEY CITY,40.707218,-74.077365,Vacant Building
658,OCEAN AVENUE,658 OCEAN AVENUE,JERSEY CITY,40.708721,-74.0765909,Vacant Building
272,OCEAN AVENUE,272 OCEAN AVENUE,JERSEY CITY,40.6968776,-74.0886451,Vacant Building
377,OCEAN AVENUE,377 OCEAN AVENUE,JERSEY CITY,40.699806,-74.084811,Vacant Building
512,OCEAN AVENUE,512 OCEAN AVENUE,JERSEY CITY,40.703765,-74.079925,Vacant Building
438,OCEAN AVENUE,438 OCEAN AVENUE,JERSEY CITY,40.701298,-74.082425,Vacant Building
311,OCEAN AVENUE,311 OCEAN AVENUE,JERSEY CITY,40.698237,-74.087231,Vacant Building
91,OCEAN AVENUE,91 OCEAN AVENUE,JERSEY CITY,40.692013,-74.095398,Vacant Building
59,OCEAN AVENUE,59 OCEAN AVENUE,JERSEY CITY,40.6908653,-74.0967196,Vacant Building
101,OCEAN AVENUE,101 OCEAN AVENUE,JERSEY CITY,40.692392,-74.095001,Vacant Building
105,OCEAN AVENUE,105 OCEAN AVENUE,JERSEY CITY,40.692511,-74.094855,Vacant Building
148,OCEAN AVENUE,148 OCEAN AVENUE,JERSEY CITY,40.693352,-74.09308,Vacant Building
311,OCEAN AVENUE,311 OCEAN AVENUE,JERSEY CITY,40.698237,-74.087231,Vacant Building
354,OGDEN AVENUE,354 OGDEN AVENUE,JERSEY CITY,40.745866,-74.041807,Vacant Building
379,OGDEN AVENUE,379 OGDEN AVENUE,JERSEY CITY,40.746687,-74.041844,Vacant Building
401,OGDEN AVENUE,401 OGDEN AVENUE,JERSEY CITY,40.7473118,-74.0413114,Vacant Building
377,OGDEN AVENUE,377 OGDEN AVENUE,JERSEY CITY,40.7466409,-74.041874,Vacant Building
269,OGDEN AVENUE,269 OGDEN AVENUE,JERSEY CITY,40.743104,-74.044136,Vacant Building
105,OLD BERGEN ROAD,105 OLD BERGEN ROAD,JERSEY CITY,40.693364,-74.096214,Vacant Building
160,OLD BERGEN ROAD,160 OLD BERGEN ROAD,JERSEY CITY,40.694792,-74.094308,Vacant Building
275,OLD BERGEN ROAD,275 OLD BERGEN ROAD,JERSEY CITY,40.699503,-74.092497,Vacant Building
306,OLD BERGEN ROAD,306 OLD BERGEN ROAD,JERSEY CITY,40.7004499,-74.091995,Vacant Building
98,OLD BERGEN ROAD,98 OLD BERGEN ROAD,JERSEY CITY,40.6926879,-74.096134,Vacant Building
162-164,OLD BERGEN ROAD,162-164 OLD BERGEN ROAD,JERSEY CITY,40.6951004,-74.0943164,Vacant Building
144,OLD BERGEN ROAD,144 OLD BERGEN ROAD,JERSEY CITY,40.6944454,-74.0949271,Vacant Building
158,OLD BERGEN ROAD,158 OLD BERGEN ROAD,JERSEY CITY,40.694738,-74.094356,Vacant Building
221,OLEAN AVENUE,221 OLEAN AVENUE,JERSEY CITY,40.7287469,-74.0776457,Vacant Building
200,OLEAN AVENUE,200 OLEAN AVENUE,JERSEY CITY,40.727904,-74.077688,Vacant Building
61,ORIENT AVENUE,61 ORIENT AVENUE,JERSEY CITY,40.7099649,-74.079425,Vacant Building
75,ORIENT AVENUE,75 ORIENT AVENUE,JERSEY CITY,40.710451,-74.08017,Vacant Building
93.5,ORIENT AVENUE,93.5 ORIENT AVENUE,JERSEY CITY,40.7087909,-74.0771492,Vacant Building
97,ORIENT AVENUE,97 ORIENT AVENUE,JERSEY CITY,40.710938,-74.080914,Vacant Building
98,ORIENT AVENUE,98 ORIENT AVENUE,JERSEY CITY,40.7112589,-74.08047,Vacant Building
99,ORIENT AVENUE,99 ORIENT AVENUE,JERSEY CITY,40.7110703,-74.080958,Vacant Building
112,ORIENT AVENUE,112 ORIENT AVENUE,JERSEY CITY,40.711511,-74.0808969,Vacant Building
0,ORIENT AVENUE,0 ORIENT AVENUE,JERSEY CITY,40.7087132,-74.0769721,Vacant Building
81A,ORIENT AVENUE,81A ORIENT AVENUE,JERSEY CITY,40.7106674,-74.0803883,Vacant Building
81,ORIENT AVENUE,81 ORIENT AVENUE,JERSEY CITY,40.71058,-74.080367,Vacant Building
81.5,ORIENT AVENUE,81.5 ORIENT AVENUE,JERSEY CITY,40.7087909,-74.0771492,Vacant Building
112.5,ORIENT AVENUE,112.5 ORIENT AVENUE,JERSEY CITY,40.7087909,-74.0771492,Vacant Building
37,OXFORD AVENUE,37 OXFORD AVENUE,JERSEY CITY,40.717628,-74.077589,Vacant Building
113,OXFORD AVENUE,113 OXFORD AVENUE,JERSEY CITY,40.719131,-74.080404,Vacant Building
277,PACIFIC AVENUE,277 PACIFIC AVENUE,JERSEY CITY,40.710982,-74.063761,Vacant Building
326,PACIFIC AVENUE,326 PACIFIC AVENUE,JERSEY CITY,40.711858,-74.061575,Vacant Building
398,PACIFIC AVENUE,398 PACIFIC AVENUE,JERSEY CITY,40.713487,-74.05928,Vacant Building
424,PACIFIC AVENUE,424 PACIFIC AVENUE,JERSEY CITY,40.714091,-74.058429,Vacant Building
428,PACIFIC AVENUE,428 PACIFIC AVENUE,JERSEY CITY,40.714153,-74.058341,Vacant Building
368,PACIFIC AVENUE,368 PACIFIC AVENUE,JERSEY CITY,40.712767,-74.060294,Vacant Building
91,PALISADE AVENUE,91 PALISADE AVENUE,JERSEY CITY,40.732629,-74.052091,Vacant Building
404,PALISADE AVENUE,404 PALISADE AVENUE,JERSEY CITY,40.7423659,-74.045008,Vacant Building
406,PALISADE AVENUE,406 PALISADE AVENUE,JERSEY CITY,40.7424279,-74.044969,Vacant Building
417,PALISADE AVENUE,417 PALISADE AVENUE,JERSEY CITY,40.743038,-74.045245,Vacant Building
425,PALISADE AVENUE,425 PALISADE AVENUE,JERSEY CITY,40.743284,-74.045087,Vacant Building
454,PALISADE AVENUE,454 PALISADE AVENUE,JERSEY CITY,40.743958,-74.043991,Vacant Building
461,PALISADE AVENUE,461 PALISADE AVENUE,JERSEY CITY,40.7444879,-74.044319,Vacant Building
520,PALISADE AVENUE,520 PALISADE AVENUE,JERSEY CITY,40.7461985,-74.0427619,Vacant Building
364-366,PALISADE AVENUE,364-366 PALISADE AVENUE,JERSEY CITY,40.741013,-74.045873,Vacant Building
91 A,PALISADE AVENUE,91 A PALISADE AVENUE,JERSEY CITY,40.73271,-74.05208,Vacant Building
671,PALISADE AVENUE,671 PALISADE AVENUE,JERSEY CITY,40.7512779,-74.0399168,Vacant Building
81,PALISADE AVENUE,81 PALISADE AVENUE,JERSEY CITY,40.732393,-74.052463,Vacant Building
380,PALISADE AVENUE,380 PALISADE AVENUE,JERSEY CITY,40.7416703,-74.0456212,Vacant Building
391,PALISADE AVENUE,391 PALISADE AVENUE,JERSEY CITY,40.7421719,-74.045798,Vacant Building
389,PALISADE AVENUE,389 PALISADE AVENUE,JERSEY CITY,40.7421093,-74.0457901,Vacant Building
40,PAMRAPO AVENUE,40 PAMRAPO AVENUE,JERSEY CITY,40.692138,-74.0994121,Vacant Building
42,PAMRAPO AVENUE,42 PAMRAPO AVENUE,JERSEY CITY,40.6920785,-74.0993607,Vacant Building
24,PAMRAPO AVENUE,24 PAMRAPO AVENUE,JERSEY CITY,40.6912246,-74.0982778,Vacant Building
77,PAMRAPO AVENUE,77 PAMRAPO AVENUE,JERSEY CITY,40.692452,-74.100057,Vacant Building
2,PARK STREET,2 PARK STREET,JERSEY CITY,40.716128,-74.069163,Vacant Building
56,PARK STREET,56 PARK STREET,JERSEY CITY,40.717524,-74.068438,Vacant Building
42,PASSAIC AVENUE,42 PASSAIC AVENUE,JERSEY CITY,40.751312,-74.047697,Vacant Building
223,PAVONIA AVENUE,223 PAVONIA AVENUE,JERSEY CITY,40.727268,-74.04325,Vacant Building
304,PAVONIA AVENUE,304 PAVONIA AVENUE,JERSEY CITY,40.728132,-74.047608,Vacant Building
177,PEARSALL AVENUE,177 PEARSALL AVENUE,JERSEY CITY,40.695672,-74.095059,Vacant Building
295,PEARSALL AVENUE,295 PEARSALL AVENUE,JERSEY CITY,40.6993,-74.098137,Vacant Building
20,PEARSALL AVENUE,20 PEARSALL AVENUE,JERSEY CITY,40.69109,-74.09059,Vacant Building
258,PINE STREET,258 PINE STREET,JERSEY CITY,40.711682,-74.059089,Vacant Building
276,PINE STREET,276 PINE STREET,JERSEY CITY,40.712213,-74.0583319,Vacant Building
184,PINE STREET,184 PINE STREET,JERSEY CITY,40.709836,-74.061774,Vacant Building
137,POPLAR STREET,137 POPLAR STREET,JERSEY CITY,40.755598,-74.050259,Vacant Building
133,POPLAR STREET,133 POPLAR STREET,JERSEY CITY,40.755535,-74.050099,Vacant Building
18,PRESCOTT STREET,18 PRESCOTT STREET,JERSEY CITY,40.7161797,-74.0679811,Vacant Building
56,PRESCOTT STREET,56 PRESCOTT STREET,JERSEY CITY,40.717432,-74.068141,Vacant Building
79,PRESCOTT STREET,79 PRESCOTT STREET,JERSEY CITY,40.717432,-74.069472,Vacant Building
338,PRINCETON AVENUE,338 PRINCETON AVENUE,JERSEY CITY,40.691599,-74.0889318,Vacant Building
248,PRINCTON AVENUE,248 PRINCTON AVENUE,JERSEY CITY,40.68962,-74.091401,Vacant Building
282,PRINCTON AVENUE,282 PRINCTON AVENUE,JERSEY CITY,40.690297,-74.090534,Vacant Building
364,PRINCTON AVENUE,364 PRINCTON AVENUE,JERSEY CITY,40.692331,-74.087925,Vacant Building
86,PROSPECT STREET,86 PROSPECT STREET,JERSEY CITY,40.738999,-74.050956,Vacant Building
20A,PROSPECT STREET,20A PROSPECT STREET,JERSEY CITY,40.737694,-74.048577,Vacant Building
29,PROSPECT STREET,29 PROSPECT STREET,JERSEY CITY,40.73748,-74.049021,Vacant Building
73,RANDOLPH AVENUE,73 RANDOLPH AVENUE,JERSEY CITY,40.70646,-74.074929,Vacant Building
126,RANDOLPH AVENUE,126 RANDOLPH AVENUE,JERSEY CITY,40.708139,-74.073347,Vacant Building
134,RANDOLPH AVENUE,134 RANDOLPH AVENUE,JERSEY CITY,40.708435,-74.073285,Vacant Building
245,RANDOLPH AVENUE,245 RANDOLPH AVENUE,JERSEY CITY,40.711847,-74.070769,Vacant Building
273,RANDOLPH AVENUE,273 RANDOLPH AVENUE,JERSEY CITY,40.712266,-74.070296,Vacant Building
23,RANDOLPH AVENUE,23 RANDOLPH AVENUE,JERSEY CITY,40.704969,-74.076054,Vacant Building
156,RANDOLPH AVENUE,156 RANDOLPH AVENUE,JERSEY CITY,40.709263,-74.072743,Vacant Building
175,RANDOLPH AVENUE,175 RANDOLPH AVENUE,JERSEY CITY,40.709935,-74.072986,Vacant Building
171,RANDOLPH AVENUE,171 RANDOLPH AVENUE,JERSEY CITY,40.709828,-74.0730899,Vacant Building
46,RAVINE AVENUE,46 RAVINE AVENUE,JERSEY CITY,40.740662,-74.049268,Vacant Building
25,REED STREET,25 REED STREET,JERSEY CITY,40.7230567,-74.0701478,Vacant Building
79,ROOSEVELT AVENUE,79 ROOSEVELT AVENUE,JERSEY CITY,40.721271,-74.085047,Vacant Building
11,ROSE AVENUE,11 ROSE AVENUE,JERSEY CITY,40.698942,-74.091621,Vacant Building
12,ROSE AVENUE,12 ROSE AVENUE,JERSEY CITY,40.698618,-74.091277,Vacant Building
56,ROSE AVENUE,56 ROSE AVENUE,JERSEY CITY,40.699669,-74.089928,Vacant Building
60,ROSE AVENUE,60 ROSE AVENUE,JERSEY CITY,40.699749,-74.089826,Vacant Building
66,ROSE AVENUE,66 ROSE AVENUE,JERSEY CITY,40.699915,-74.089613,Vacant Building
173,ROSE AVENUE,173 ROSE AVENUE,JERSEY CITY,40.702786,-74.0864014,Vacant Building
189,ROSE AVENUE,189 ROSE AVENUE,JERSEY CITY,40.7033987,-74.0857867,Vacant Building
44,RUTGERS AVENUE,44 RUTGERS AVENUE,JERSEY CITY,40.6988981,-74.089714,Vacant Building
64,RUTGERS AVENUE,64 RUTGERS AVENUE,JERSEY CITY,40.699351,-74.08902,Vacant Building
73,SANFORD PLACE,73 SANFORD PLACE,JERSEY CITY,40.745937,-74.056102,Vacant Building
46,SEAVIEW AVENUE,46 SEAVIEW AVENUE,JERSEY CITY,40.689802,-74.094031,Vacant Building
220,SEAVIEW AVENUE,220 SEAVIEW AVENUE,JERSEY CITY,40.69526,-74.09836,Vacant Building
56,SEAVIEW AVENUE,56 SEAVIEW AVENUE,JERSEY CITY,40.690116,-74.094279,Vacant Building
171,SECOND STREET,171 SECOND STREET,JERSEY CITY,40.721964,-74.04035,Vacant Building
62,SEIDLER STREET,62 SEIDLER STREET,JERSEY CITY,40.717426,-74.074252,Vacant Building
25,SEIDLER STREET,25 SEIDLER STREET,JERSEY CITY,40.71664,-74.075394,Vacant Building
60,SEIDLER STREET,60 SEIDLER STREET,JERSEY CITY,40.7174369,-74.0743008,Vacant Building
15,SEIDLER STREET,15 SEIDLER STREET,JERSEY CITY,40.716341,-74.075614,Vacant Building
374,SEVENTH STREET,374 SEVENTH STREET,JERSEY CITY,40.726948,-74.051188,Vacant Building
21,SHEFIELD AVENUE,21 SHEFIELD AVENUE,JERSEY CITY,40.6977475,-74.0890055,Vacant Building
45,SHEFIELD AVENUE,45 SHEFIELD AVENUE,JERSEY CITY,40.698324,-74.089787,Vacant Building
29,SHERMAN AVENUE,29 SHERMAN AVENUE,JERSEY CITY,40.741822,-74.048997,Vacant Building
70,SHERMAN AVENUE,70 SHERMAN AVENUE,JERSEY CITY,40.743013,-74.0476599,Vacant Building
99,SHERMAN AVENUE,99 SHERMAN AVENUE,JERSEY CITY,40.7442586,-74.0474409,Vacant Building
102,SHERMAN AVENUE,102 SHERMAN AVENUE,JERSEY CITY,40.7442526,-74.0472483,Vacant Building
113,SHERMAN AVENUE,113 SHERMAN AVENUE,JERSEY CITY,40.74465,-74.047141,Vacant Building
120,SHERMAN AVENUE,120 SHERMAN AVENUE,JERSEY CITY,40.744867,-74.04652,Vacant Building
127,SHERMAN AVENUE,127 SHERMAN AVENUE,JERSEY CITY,40.745258,-74.04683,Vacant Building
26,SIEDLER STREET,26 SIEDLER STREET,JERSEY CITY,40.716386,-74.074897,Vacant Building
32,SIEDLER STREET,32 SIEDLER STREET,JERSEY CITY,40.716578,-74.074767,Vacant Building
60,SIEDLER STREET,60 SIEDLER STREET,JERSEY CITY,40.7174369,-74.0743008,Vacant Building
64,SIEDLER STREET,64 SIEDLER STREET,JERSEY CITY,40.717461,-74.074228,Vacant Building
338,SIP AVENUE,338 SIP AVENUE,JERSEY CITY,40.733514,-74.076058,Vacant Building
271-277,SIP AVENUE,271-277 SIP AVENUE,JERSEY CITY,40.7326229,-74.073474,Vacant Building
216.5,SIXTH STREET,216.5 SIXTH STREET,JERSEY CITY,40.7257727,-74.0476072,Vacant Building
240.5,SIXTH STREET,240.5 SIXTH STREET,JERSEY CITY,40.7257727,-74.0476072,Vacant Building
2,SKILLMAN AVENUE,2 SKILLMAN AVENUE,JERSEY CITY,40.73625,-74.063657,Vacant Building
63,SKILLMAN AVENUE,63 SKILLMAN AVENUE,JERSEY CITY,40.738586,-74.063725,Vacant Building
75,SOUTH STREET,75 SOUTH STREET,JERSEY CITY,40.7485974,-74.0450787,Vacant Building
78,SOUTH STREET,78 SOUTH STREET,JERSEY CITY,40.748755,-74.0450369,Vacant Building
58,ST. PAULS AVENUE,58 ST. PAULS AVENUE,JERSEY CITY,40.7349543,-74.0535032,Vacant Building
310,STEGMAN PARKWAY,310 STEGMAN PARKWAY,JERSEY CITY,40.708488,-74.088894,Vacant Building
263,STEGMAN STREET,263 STEGMAN STREET,JERSEY CITY,40.7066892,-74.0877081,Vacant Building
203,STEGMAN STREET,203 STEGMAN STREET,JERSEY CITY,40.7051512,-74.0850376,Vacant Building
60,STEGMAN STREET,60 STEGMAN STREET,JERSEY CITY,40.702571,-74.080336,Vacant Building
234,STEGMAN STREET,234 STEGMAN STREET,JERSEY CITY,40.706127,-74.085701,Vacant Building
67,STEGMAN STREET,67 STEGMAN STREET,JERSEY CITY,40.70253,-74.081012,Vacant Building
207,STEGMAN STREET,207 STEGMAN STREET,JERSEY CITY,40.70518,-74.085212,Vacant Building
24,STEGMAN TERRACE,24 STEGMAN TERRACE,JERSEY CITY,40.709043,-74.0910763,Vacant Building
169,STERLING AVENUE,169 STERLING AVENUE,JERSEY CITY,40.707717,-74.092099,Vacant Building
169,STERLING AVENUE,169 STERLING AVENUE,JERSEY CITY,40.707717,-74.092099,Vacant Building
316,STEVENS AVENUE,316 STEVENS AVENUE,JERSEY CITY,40.707245,-74.095895,Vacant Building
321,STEVENS AVENUE,321 STEVENS AVENUE,JERSEY CITY,40.707066,-74.096333,Vacant Building
50,STORMS AVENUE,50 STORMS AVENUE,JERSEY CITY,40.722073,-74.067435,Vacant Building
105,STORMS AVENUE,105 STORMS AVENUE,JERSEY CITY,40.723885,-74.068562,Vacant Building
108,STORMS AVENUE,108 STORMS AVENUE,JERSEY CITY,40.723956,-74.068014,Vacant Building
37,STORMS AVENUE,37 STORMS AVENUE,JERSEY CITY,40.721584,-74.0678329,Vacant Building
21,STORMS AVENUE,21 STORMS AVENUE,JERSEY CITY,40.721013,-74.067683,Vacant Building
51,STUYVESANT AVENUE,51 STUYVESANT AVENUE,JERSEY CITY,40.729615,-74.070893,Vacant Building
88A,SUBURBIA DRIVE,88A SUBURBIA DRIVE,JERSEY CITY,40.7038757,-74.0997328,Vacant Building
96 A,SUBURBIA DRIVE,96 A SUBURBIA DRIVE,JERSEY CITY,40.7040995,-74.099652,Vacant Building
29,SUMMIT AVENUE,29 SUMMIT AVENUE,JERSEY CITY,40.716183,-74.067485,Vacant Building
102,SUMMIT AVENUE,102 SUMMIT AVENUE,JERSEY CITY,40.718787,-74.067162,Vacant Building
118,SUMMIT AVENUE,118 SUMMIT AVENUE,JERSEY CITY,40.7192725,-74.0670937,Vacant Building
136,SUMMIT AVENUE,136 SUMMIT AVENUE,JERSEY CITY,40.7199024,-74.066772,Vacant Building
948,SUMMIT AVENUE,948 SUMMIT AVENUE,JERSEY CITY,40.746383,-74.051813,Vacant Building
225,SUMMIT AVENUE,225 SUMMIT AVENUE,JERSEY CITY,40.722976,-74.066046,Vacant Building
280,SUMMIT AVENUE,280 SUMMIT AVENUE,JERSEY CITY,40.724739,-74.064458,Vacant Building
687,SUMMIT AVENUE,687 SUMMIT AVENUE,JERSEY CITY,40.738584,-74.058685,Vacant Building
689,SUMMIT AVENUE,689 SUMMIT AVENUE,JERSEY CITY,40.73865,-74.058636,Vacant Building
86,SUSSEX STREET,86 SUSSEX STREET,JERSEY CITY,40.7146935,-74.0372603,Vacant Building
152,SUSSEX STREET,152 SUSSEX STREET,JERSEY CITY,40.715109,-74.04074,Vacant Building
158,SUSSEX STREET,158 SUSSEX STREET,JERSEY CITY,40.715129,-74.040919,Vacant Building
234,SUYDAM AVENUE,234 SUYDAM AVENUE,JERSEY CITY,40.7086759,-74.061448,Vacant Building
60,SYCAMORE ROAD,60 SYCAMORE ROAD,JERSEY CITY,40.697608,-74.101578,Vacant Building
19,TERHUNE AVENUE,19 TERHUNE AVENUE,JERSEY CITY,40.70182,-74.093889,Vacant Building
80,TERHUNE AVENUE,80 TERHUNE AVENUE,JERSEY CITY,40.7037819,-74.094881,Vacant Building
28,TERHUNE AVENUE,28 TERHUNE AVENUE,JERSEY CITY,40.7022774,-74.0936865,Vacant Building
84,TERHUNE AVENUE,84 TERHUNE AVENUE,JERSEY CITY,40.7039436,-74.0950389,Vacant Building
298,TERRACE AVENUE,298 TERRACE AVENUE,JERSEY CITY,40.756347,-74.053303,Vacant Building
307,THIRD STREET,307 THIRD STREET,JERSEY CITY,40.7234473,-74.0481488,Vacant Building
19,THORNE STREET,19 THORNE STREET,JERSEY CITY,40.748703,-74.048625,Vacant Building
70,THORNE STREET,70 THORNE STREET,JERSEY CITY,40.749991,-74.050609,Vacant Building
187,TONNELE AVENUE,187 TONNELE AVENUE,JERSEY CITY,40.737149,-74.066386,Vacant Building
634,TONNELE AVENUE,634 TONNELE AVENUE,JERSEY CITY,40.751981,-74.057611,Vacant Building
2,TOWERS STREET,2 TOWERS STREET,JERSEY CITY,40.710674,-74.089057,Vacant Building
49,TOWERS STREET,49 TOWERS STREET,JERSEY CITY,40.711359,-74.089502,Vacant Building
20,UNION STREET,20 UNION STREET,JERSEY CITY,40.711778,-74.071015,Vacant Building
82,UNION STREET,82 UNION STREET,JERSEY CITY,40.713012,-74.073397,Vacant Building
217,UNION STREET,217 UNION STREET,JERSEY CITY,40.7158006,-74.0793223,Vacant Building
166,UNION STREET,166 UNION STREET,JERSEY CITY,40.714894,-74.076892,Vacant Building
415,UNION STREET,415 UNION STREET,JERSEY CITY,40.719901,-74.086951,Vacant Building
217,UNION STREET,217 UNION STREET,JERSEY CITY,40.7158006,-74.0793223,Vacant Building
134,VAN HORNE STREET,134 VAN HORNE STREET,JERSEY CITY,40.7109703,-74.0659516,Vacant Building
137,VAN HORNE STREET,137 VAN HORNE STREET,JERSEY CITY,40.711215,-74.066115,Vacant Building
148,VAN HORNE STREET,148 VAN HORNE STREET,JERSEY CITY,40.711118,-74.065472,Vacant Building
152,VAN HORNE STREET,152 VAN HORNE STREET,JERSEY CITY,40.711181,-74.065384,Vacant Building
164,VAN HORNE STREET,164 VAN HORNE STREET,JERSEY CITY,40.711367,-74.065122,Vacant Building
180,VAN HORNE STREET,180 VAN HORNE STREET,JERSEY CITY,40.7117069,-74.064644,Vacant Building
85-91,VAN HORNE STREET,85-91 VAN HORNE STREET,JERSEY CITY,40.7100279,-74.067485,Vacant Building
137,VAN NOSTRAND AVENUE,137 VAN NOSTRAND AVENUE,JERSEY CITY,40.701551,-74.0871049,Vacant Building
211,VAN NOSTRAND AVENUE,211 VAN NOSTRAND AVENUE,JERSEY CITY,40.703215,-74.089639,Vacant Building
289,VAN NOSTRAND AVENUE,289 VAN NOSTRAND AVENUE,JERSEY CITY,40.7056571,-74.0929414,Vacant Building
380,VAN NOSTRAND AVENUE,380 VAN NOSTRAND AVENUE,JERSEY CITY,40.7078119,-74.095359,Vacant Building
116,VAN NOSTRAND AVENUE,116 VAN NOSTRAND AVENUE,JERSEY CITY,40.701372,-74.085947,Vacant Building
293,VAN NOSTRAND AVENUE,293 VAN NOSTRAND AVENUE,JERSEY CITY,40.705705,-74.0930098,Vacant Building
152,VAN NOSTRAND AVENUE,152 VAN NOSTRAND AVENUE,JERSEY CITY,40.702176,-74.087174,Vacant Building
37,VAN NOSTRAND AVENUE,37 VAN NOSTRAND AVENUE,JERSEY CITY,40.6992794,-74.0839691,Vacant Building
60,VIRGINIA AVENUE,60 VIRGINIA AVENUE,JERSEY CITY,40.712829,-74.077874,Vacant Building
97,VIRGINIA AVENUE,97 VIRGINIA AVENUE,JERSEY CITY,40.712893,-74.079159,Vacant Building
98,VIRGINIA AVENUE,98 VIRGINIA AVENUE,JERSEY CITY,40.713501,-74.0793635,Vacant Building
106,VIRGINIA AVENUE,106 VIRGINIA AVENUE,JERSEY CITY,40.713655,-74.079517,Vacant Building
157,VIRGINIA AVENUE,157 VIRGINIA AVENUE,JERSEY CITY,40.714184,-74.08146,Vacant Building
170,VIRGINIA AVENUE,170 VIRGINIA AVENUE,JERSEY CITY,40.715003,-74.082053,Vacant Building
175,VIRGINIA AVENUE,175 VIRGINIA AVENUE,JERSEY CITY,40.714539,-74.082125,Vacant Building
245,VIRGINIA AVENUE,245 VIRGINIA AVENUE,JERSEY CITY,40.716066,-74.084985,Vacant Building
286,VIRGINIA AVENUE,286 VIRGINIA AVENUE,JERSEY CITY,40.717548,-74.08634,Vacant Building
297,VIRGINIA AVENUE,297 VIRGINIA AVENUE,JERSEY CITY,40.7173341,-74.0868076,Vacant Building
335,VIRGINIA AVENUE,335 VIRGINIA AVENUE,JERSEY CITY,40.7181039,-74.088375,Vacant Building
298,VIRGINIA AVENUE,298 VIRGINIA AVENUE,JERSEY CITY,40.71773,-74.086739,Vacant Building
205,VIRGINIA AVENUE,205 VIRGINIA AVENUE,JERSEY CITY,40.715217,-74.083563,Vacant Building
41,VROOM STREET,41 VROOM STREET,JERSEY CITY,40.7264234,-74.0635617,Vacant Building
63,VROOM STREET,63 VROOM STREET,JERSEY CITY,40.726805,-74.064507,Vacant Building
13,WADE STREET,13 WADE STREET,JERSEY CITY,40.698979,-74.086608,Vacant Building
25,WADE STREET,25 WADE STREET,JERSEY CITY,40.699275,-74.086979,Vacant Building
45,WADE STREET,45 WADE STREET,JERSEY CITY,40.699675,-74.087481,Vacant Building
59,WADE STREET,59 WADE STREET,JERSEY CITY,40.700029,-74.087922,Vacant Building
126,WADE STREET,126 WADE STREET,JERSEY CITY,40.702267,-74.0899249,Vacant Building
134,WADE STREET,134 WADE STREET,JERSEY CITY,40.702468,-74.090176,Vacant Building
97,WADE STREET,97 WADE STREET,JERSEY CITY,40.701139,-74.089314,Vacant Building
37,WALES AVENUE,37 WALES AVENUE,JERSEY CITY,40.734797,-74.074054,Vacant Building
109,WALES AVENUE,109 WALES AVENUE,JERSEY CITY,40.7370372,-74.0729452,Vacant Building
111,WALES AVENUE,111 WALES AVENUE,JERSEY CITY,40.737076,-74.072922,Vacant Building
12,WALLIS STREET,12 WALLIS STREET,JERSEY CITY,40.734453,-74.075612,Vacant Building
44,WARNER AVENUE,44 WARNER AVENUE,JERSEY CITY,40.699499,-74.087757,Vacant Building
124,WARNER AVENUE,124 WARNER AVENUE,JERSEY CITY,40.701676,-74.090485,Vacant Building
127,WARNER AVENUE,127 WARNER AVENUE,JERSEY CITY,40.701423,-74.0909609,Vacant Building
57,WARNER AVENUE,57 WARNER AVENUE,JERSEY CITY,40.699589,-74.088667,Vacant Building
55,WAVERLY STREET,55 WAVERLY STREET,JERSEY CITY,40.737722,-74.051231,Vacant Building
65,WAVERLY STREET,65 WAVERLY STREET,JERSEY CITY,40.737923,-74.051597,Vacant Building
11,WAVERLY STREET,11 WAVERLY STREET,JERSEY CITY,40.73684,-74.049623,Vacant Building
11,WAYNE STREET,11 WAYNE STREET,JERSEY CITY,40.718398,-74.042616,Vacant Building
56,WAYNE STREET,56 WAYNE STREET,JERSEY CITY,40.719431,-74.0445529,Vacant Building
70,WAYNE STREET,70 WAYNE STREET,JERSEY CITY,40.719578,-74.045162,Vacant Building
198,WAYNE STREET,198 WAYNE STREET,JERSEY CITY,40.730196,-74.0666959,Vacant Building
423,WAYNE STREET,423 WAYNE STREET,JERSEY CITY,40.712835,-74.052721,Vacant Building
72,WAYNE STREET,72 WAYNE STREET,JERSEY CITY,40.703778,-74.077688,Vacant Building
197,WEBSTER AVENUE,197 WEBSTER AVENUE,JERSEY CITY,40.7044039,-74.077737,Vacant Building
271,WEBSTER AVENUE,271 WEBSTER AVENUE,JERSEY CITY,40.705411,-74.076775,Vacant Building
165,WEBSTER AVENUE,165 WEBSTER AVENUE,JERSEY CITY,40.706463,-74.076134,Vacant Building
153,WEBSTER AVENUE,153 WEBSTER AVENUE,JERSEY CITY,40.743882,-74.04671,Vacant Building
4,WEGMAN COURT,4 WEGMAN COURT,JERSEY CITY,40.7065849,-74.07535,Vacant Building
12,WEGMAN COURT,12 WEGMAN COURT,JERSEY CITY,40.708003,-74.075312,Vacant Building
41,WEGMAN PARKWAY,41 WEGMAN PARKWAY,JERSEY CITY,40.709445,-74.073817,Vacant Building
58,WEGMAN PARKWAY,58 WEGMAN PARKWAY,JERSEY CITY,40.709805,-74.073705,Vacant Building
145,WEGMAN PARKWAY,145 WEGMAN PARKWAY,JERSEY CITY,40.710342,-74.073192,Vacant Building
65,WEGMAN PARKWAY,65 WEGMAN PARKWAY,JERSEY CITY,40.711245,-74.072378,Vacant Building
142,WEST SIDE AVENUE,142 WEST SIDE AVENUE,JERSEY CITY,40.711768,-74.072179,Vacant Building
148,WEST SIDE AVENUE,148 WEST SIDE AVENUE,JERSEY CITY,40.7114815,-74.0719423,Vacant Building
301,WEST SIDE AVENUE,301 WEST SIDE AVENUE,JERSEY CITY,40.705072,-74.07638,Vacant Building
360,WEST SIDE AVENUE,360 WEST SIDE AVENUE,JERSEY CITY,40.707465,-74.074927,Vacant Building
443,WEST SIDE AVENUE,443 WEST SIDE AVENUE,JERSEY CITY,40.7036938,-74.0781225,Vacant Building
757,WEST SIDE AVENUE,757 WEST SIDE AVENUE,JERSEY CITY,40.710217,-74.074126,Vacant Building
999,WEST SIDE AVENUE,999 WEST SIDE AVENUE,JERSEY CITY,40.7129641,-74.070778,Vacant Building
1019,WEST SIDE AVENUE,1019 WEST SIDE AVENUE,JERSEY CITY,40.706156,-74.07558,Vacant Building
650,WEST SIDE AVENUE,650 WEST SIDE AVENUE,JERSEY CITY,40.69944,-74.083022,Vacant Building
11,WEST STREET,11 WEST STREET,JERSEY CITY,40.7010549,-74.084062,Vacant Building
98,WESTERN AVENUE,98 WESTERN AVENUE,JERSEY CITY,40.7025099,-74.087128,Vacant Building
31,WESTERVELT PLACE,31 WESTERVELT PLACE,JERSEY CITY,40.703009,-74.087045,Vacant Building
35,WESTERVELT PLACE,35 WESTERVELT PLACE,JERSEY CITY,40.702689,-74.087402,Vacant Building
36,WESTERVELT PLACE,36 WESTERVELT PLACE,JERSEY CITY,40.708485,-74.095028,Vacant Building
305,WHITON STREET,305 WHITON STREET,JERSEY CITY,40.7001994,-74.083061,Vacant Building
366,WHITON STREET,366 WHITON STREET,JERSEY CITY,40.700682,-74.084331,Vacant Building
376,WHITON STREET,376 WHITON STREET,JERSEY CITY,40.7058204,-74.0911124,Vacant Building
299,WHITON STREET,299 WHITON STREET,JERSEY CITY,40.6914011,-73.9983729,Vacant Building
302,WHITON STREET,302 WHITON STREET,JERSEY CITY,40.715959,-74.077355,Vacant Building
332,WHITON STREET,332 WHITON STREET,JERSEY CITY,40.71473,-74.07595,Vacant Building
227-229,WHITON STREET,227-229 WHITON STREET,JERSEY CITY,40.714939,-74.076344,Vacant Building
305,WHITON STREET,305 WHITON STREET,JERSEY CITY,40.7001994,-74.083061,Vacant Building
11,WILKINSON AVENUE,11 WILKINSON AVENUE,JERSEY CITY,40.7230501,-74.0650125,Vacant Building
111,WILKINSON AVENUE,111 WILKINSON AVENUE,JERSEY CITY,40.72744,-74.060507,Vacant Building
133,WILKINSON AVENUE,133 WILKINSON AVENUE,JERSEY CITY,40.730965,-74.0577351,Vacant Building
172,WILKINSON AVENUE,172 WILKINSON AVENUE,JERSEY CITY,40.734844,-74.052953,Vacant Building
98,WILKINSON AVENUE,98 WILKINSON AVENUE,JERSEY CITY,40.7230501,-74.0650125,Vacant Building
91,WILKINSON AVENUE,91 WILKINSON AVENUE,JERSEY CITY,40.7218488,-74.0656685,Vacant Building
201,WILKINSON AVENUE,201 WILKINSON AVENUE,JERSEY CITY,40.697629,-74.09782,Vacant Building
170,WILKINSON AVENUE,170 WILKINSON AVENUE,JERSEY CITY,40.700277,-74.099997,Vacant Building
58,WILLIAMS AVENUE,58 WILLIAMS AVENUE,JERSEY CITY,40.718095,-74.054127,Vacant Building
83,WILLIAMS AVENUE,83 WILLIAMS AVENUE,JERSEY CITY,40.6988119,-74.081323,Vacant Building
25,WILLIAMS AVENUE,25 WILLIAMS AVENUE,JERSEY CITY,40.700503,-74.080528,Vacant Building
20,WINFIELD AVENUE,20 WINFIELD AVENUE,JERSEY CITY,40.700548,-74.080349,Vacant Building
39,WINFIELD AVENUE,39 WINFIELD AVENUE,JERSEY CITY,40.699485,-74.079988,Vacant Building
119,WINFIELD AVENUE,119 WINFIELD AVENUE,JERSEY CITY,40.705997,-74.08092,Vacant Building
273,WINFIELD AVENUE,273 WINFIELD AVENUE,JERSEY CITY,40.702817,-74.076755,Vacant Building
313,WINFIELD AVENUE,313 WINFIELD AVENUE,JERSEY CITY,40.702967,-74.076824,Vacant Building
83,WOODLAWN AVENUE,83 WOODLAWN AVENUE,JERSEY CITY,40.707908,-74.084633,Vacant Building
102,WOODLAWN AVENUE,102 WOODLAWN AVENUE,JERSEY CITY,40.707682,-74.084295,Vacant Building
156,WOODLAWN AVENUE,156 WOODLAWN AVENUE,JERSEY CITY,40.702998,-74.077674,Vacant Building
158,WOODLAWN AVENUE,158 WOODLAWN AVENUE,JERSEY CITY,40.7060419,-74.080988,Vacant Building
161,WOODLAWN AVENUE,161 WOODLAWN AVENUE,JERSEY CITY,40.744471,-74.057066,Vacant Building
176,WOODLAWN AVENUE,176 WOODLAWN AVENUE,JERSEY CITY,40.744821,-74.059155,Vacant Building
255,WOODLAWN AVENUE,255 WOODLAWN AVENUE,JERSEY CITY,40.735701,-74.052884,Vacant Building
262,WOODLAWN AVENUE,262 WOODLAWN AVENUE,JERSEY CITY,40.736406,-74.053134,Vacant Building
399,WOODLAWN AVENUE,399 WOODLAWN AVENUE,JERSEY CITY,40.7371089,-74.055625,Vacant Building
411,WOODLAWN AVENUE,411 WOODLAWN AVENUE,JERSEY CITY,40.7191529,-74.0682743,Vacant Building
412,WOODLAWN AVENUE,412 WOODLAWN AVENUE,JERSEY CITY,40.7189489,-74.0687542,Vacant Building
288,WOODLAWN AVENUE,288 WOODLAWN AVENUE,JERSEY CITY,40.718912,-74.068803,Vacant Building
259,WOODLAWN AVENUE,259 WOODLAWN AVENUE,JERSEY CITY,40.71893,-74.068845,Vacant Building
367,WOODLAWN AVENUE,367 WOODLAWN AVENUE,JERSEY CITY,40.719564,-74.0702788,Vacant Building
405,WOODLAWN AVENUE,405 WOODLAWN AVENUE,JERSEY CITY,40.7290115,-74.0780576,Vacant Building
101,WOODLAWN AVENUE,101 WOODLAWN AVENUE,JERSEY CITY,40.7214979,-74.078806,Vacant Building
72,WOODWARD STREET,72 WOODWARD STREET,JERSEY CITY,40.708256,-74.085711,Vacant Building
106,WOODWARD STREET,106 WOODWARD STREET,JERSEY CITY,40.7091179,-74.084368,Vacant Building
108,WOODWARD STREET,108 WOODWARD STREET,JERSEY CITY,40.710635,-74.083776,Vacant Building
176,WOODWARD STREET,176 WOODWARD STREET,JERSEY CITY,40.712351,-74.082455,Vacant Building
104-104.5,WOODWARD STREET,104-104.5 WOODWARD STREET,JERSEY CITY,40.724729,-74.069653,Vacant Building
106,ZABRISKIE STREET,106 ZABRISKIE STREET,JERSEY CITY,40.728007,-74.067474,Vacant Building
131,ZABRISKIE STREET,131 ZABRISKIE STREET,JERSEY CITY,40.7234073,-74.0704962,Vacant Building
133,ZABRISKIE STREET,133 ZABRISKIE STREET,JERSEY CITY,40.713985,-74.081153,Vacant Building
184,ZABRISKIE STREET,184 ZABRISKIE STREET,JERSEY CITY,40.717298,-74.077532,Vacant Building
37,GARDNER AVENUE,37 GARDNER AVENUE,JERSEY CITY,40.719779,-74.068897,Vacant Building
88,WADE STREET,88 WADE STREET,JERSEY CITY,40.701248,-74.088651,Vacant Building
127-125,HAGUE STREET,127-125 HAGUE STREET,JERSEY CITY,40.757576,-74.048961,Vacant Building
44,DALES AVENUE,44 DALES AVENUE,JERSEY CITY,40.735451,-74.076122,Vacant Building
44,DELMAR ROAD,44 DELMAR ROAD,JERSEY CITY,40.698195,-74.103851,Vacant Building
115,NEPTUNE AVENUE,115 NEPTUNE AVENUE,JERSEY CITY,40.692465,-74.095543,Vacant Building
535-533,MERCER STREET,535-533 MERCER STREET,JERSEY CITY,40.7255401,-74.0657076,Vacant Building